Venue Name,Venue Type,Address,City / Town,Postcode,LGA,Region,Lat,Long
ESSENDON FOOTBALL & COMMUNITY SPORTING CLUB,Club,CNR NAPIER STREET & BREWSTER STREET,ESSENDON,3040,City of Moonee Valley,Moonee Valley (Capped Region),-37.752,144.9196014
CELTIC CLUB,Club,316 - 320 QUEEN STREET,MELBOURNE,3000,City of Melbourne,"Melbourne CBD, Docklands & Southbank Precincts",-37.8111,144.9593048
MATTHEW FLINDERS TAVERNER,Hotel,655 - 667 WARRIGAL ROAD,CHADSTONE,3148,City of Monash,Monash (Capped Region),-37.8768,145.0924072
SKYWAYS TAVERNER,Hotel,113 MATHEWS AVENUE,AIRPORT WEST,3042,City of Moonee Valley,Moonee Valley (Capped Region),-37.7123,144.8880005
RYE RSL CLUB,Club,5-11 NELSON STREET,RYE,3941,Mornington Peninsula Shire,Mornington Peninsula Shire,-38.3718,144.8231049
"THE RICHMOND HENTY HOTEL, PORTLAND",Hotel,101 BENTINCK STREET,PORTLAND   TORIA,3305,Shire of Glenelg,Glenelg Shire,-38.3476,141.6056061
ROYAL OAK HOTEL,Hotel,1375 NEPEAN HIGHWAY,CHELTENHAM,3192,City of Kingston,Kingston City,-37.9726,145.0641937
DORSET GARDENS HOTEL,Hotel,335 DORSET ROAD,CROYDON,3136,City of Maroondah,Maroondah (Capped Region),-37.803,145.2906952
GRAND HOTEL (FRANKSTON),Hotel,499 NEPEAN HIGHWAY,FRANKSTON,3199,City of Frankston,Frankston (Capped Region),-38.1452,145.1206055
GRAND HOTEL (MORNINGTON),Hotel,124 MAIN ROAD,MORNINGTON,3931,Mornington Peninsula Shire,Mornington Peninsula Shire,-38.2198,145.039093
STAMFORD HOTEL,Hotel,CNR STUD & WELLINGTON ROAD,ROWVILLE,3178,City of Knox,Knox City,-37.9267,145.2319946
RED LION HOTEL,Hotel,217-221 MAIN ROAD,BALLARAT,3350,City of Ballarat,Ballarat (Capped Region),-37.5689,143.8701019
BURVALE HOTEL,Hotel,CNR SPRINGVALE ROAD & BURWOOD HIGHWAY,NUNAWADING,3131,City of Whitehorse,Whitehorse City,-37.8533,145.1705017
GEORGE HOTEL,Hotel,27 LYDIARD STREET NORTH,BALLARAT,3350,City of Ballarat,Ballarat (Capped Region),-37.5608,143.8574066
WALTZING MATILDA HOTEL,Hotel,856 - 868 HEATHERTON ROAD,SPRINGVALE,3171,City of Greater Dandenong,Greater Dandenong (Capped Region),-37.9627,145.1492004
WARRAGUL CLUB,Club,55 VICTORIA STREET,WARRAGUL,3820,Shire of Baw Baw,Baw Baw Shire,-38.1608,145.9290924
MOE HOTEL,Hotel,45 LLOYD STREET,MOE,3825,City of La Trobe,Latrobe (Capped Region),-38.1775,146.2619019
YORK ON LILYDALE TAVERNER RESORT,Hotel,CNR YORK & SWANSEA ROADS,MT EVELYN,3796,Shire of Yarra Ranges,Yarra Ranges Shire,-37.7953,145.3616943
MILDURA GATEWAY TAVERN,Hotel,CNR 15TH STREET & SANMATEO AVENUE,MILDURA,3500,Rural City of Mildura,Mildura Rural City,-34.2114,142.1412964
SANDOWN PARK HOTEL,Hotel,CNR PRINCES HIGHWAY & CORRIGAN ROAD,NOBLE PARK,3174,City of Greater Dandenong,Greater Dandenong (Capped Region),-37.9491,145.1723938
ALTONA SPORTS CLUB,Club,11 ALTONA ROAD,SEAHOLME,3018,City of Hobsons Bay,Hobsons Bay (Capped Region),-37.8641,144.8493042
MILDURA WORKING MANS SPORTS & SOCIAL CLUB,Club,90-124 DEAKIN AVENUE,MILDURA,3500,Rural City of Mildura,Mildura Rural City,-34.1871,142.1611023
YARRAVILLE CLUB,Club,135 STEPHEN STREET,YARRAVILLE,3013,City of Maribyrnong,Maribyrnong (Capped Region),-37.8176,144.8943939
BLEAKHOUSE HOTEL,Hotel,97 BEACONSFIELD PARADE,ALBERT PARK,3206,City of Port Phillip,Port Phillip City,-37.8475,144.9488068
MILDURA RSL,Club,130 MADDEN AVENUE,MILDURA,3500,Rural City of Mildura,Mildura Rural City,-34.1896,142.1600037
RED CLIFFS CLUB,Club,11 HEYTESBURY AVENUE,RED CLIFFS,3496,Rural City of Mildura,Mildura Rural City,-34.3046,142.1876984
KNOX CLUB,Club,CNR STUD & BORONIA ROADS,WANTIRNA,3152,City of Knox,Knox City,-37.8535,145.2429962
PINSENT HOTEL,Hotel,20 REID STREET,WANGARATTA,3677,Rural City of Wangaratta,Wangaratta Rural City,-36.3558,146.3278046
ST KILDA FOOTBALL SOCIAL CLUB,Club,32 - 64 LINTON STREET,MOORABBIN,3189,City of Kingston,Kingston City,-37.9373,145.0431061
GRAND ON DEAKIN,Hotel,13 DEAKIN AVENUE,MILDURA,3500,Rural City of Mildura,Mildura Rural City,-34.1876,142.1688995
LORD OF THE ISLES TAVERN,Hotel,3 WEST FYANS STREET,NEWTOWN,3220,City of Greater Geelong,Greater Geelong and Queenscliffe (Capped Region),-38.1603,144.3495026
MANHATTAN HOTEL,Hotel,CNR CANTERBURY & HEATHERDALE ROADS,RINGWOOD,3134,City of Maroondah,Maroondah (Capped Region),-37.8309,145.2140961
BRAYBROOK HOTEL,Hotel,353 BALLARAT ROAD,BRAYBROOK,3019,City of Maribyrnong,Maribyrnong (Capped Region),-37.7797,144.8484039
BARWON HEADS HOTEL,Hotel,1 BRIDGE ROAD,BARWON HEADS,3227,City of Greater Geelong,Greater Geelong and Queenscliffe (Capped Region),-38.2827,144.4929962
MORWELL RSL,Club,52 ELGIN STREET,MORWELL,3840,City of La Trobe,Latrobe (Capped Region),-38.24,146.3963928
MIDLANDS GOLF CLUB,Club,330 HEINZ LANE,BALLARAT,3350,City of Ballarat,Ballarat (Capped Region),-37.5266,143.8558044
BERWICK INN TAVERNER,Hotel,1 HIGH STREET,BERWICK,3806,City of Casey,Casey (Capped Region),-38.0305,145.3450928
ECHUCA WORKERS AND SERVICES CLUB,Club,165 -171 ANNESLEY STREET,ECHUCA,3564,Shire of Campaspe,Campaspe Shire,-36.1273,144.7514038
VENETO CLUB,Club,191 BULLEEN ROAD,BULLEEN,3105,City of Manningham,Manningham City,-37.7724,145.0778961
LOWER PLENTY HOTEL,Hotel,2-8 MAIN ROAD,LOWER PLENTY,3093,City of Banyule,Banyule City (Municipal Limit),-37.7303,145.1087952
YARRA VALLEY COUNTRY CLUB,Club,9 - 15 TEMPLESTOWE ROAD,BULLEEN,3105,City of Manningham,Manningham City,-37.7572,145.0847015
OLD ENGLAND HOTEL,Hotel,459 LOWER HEIDELBERG ROAD,HEIDELBERG,3084,City of Banyule,Banyule (Capped Region),-37.7581,145.0686951
SIR HENRY BARKLY HOTEL,Hotel,92 BURGUNDY STREET,HEIDELBERG,3084,City of Banyule,Banyule (Capped Region),-37.7558,145.0675049
DRUMS HOTEL,Hotel,613 SYDNEY ROAD,COBURG,3058,City of Moreland,Moreland (Capped Region),-37.7375,144.9662933
CRAMERS HOTEL,Hotel,1 CRAMER STREET,PRESTON,3072,City of Darebin,Darebin (Capped Region),-37.7408,145.002594
ST ALBANS HOTEL,Hotel,5 MCKECHNIE STREET,ST ALBANS,3021,City of Brimbank,Brimbank (Capped Region),-37.7464,144.800293
PIER HOTEL,Hotel,508 NEPEAN HIGHWAY,FRANKSTON,3199,City of Frankston,Frankston (Capped Region),-38.1449,145.1199036
MOE RSL CLUB,Club,63 ALBERT STREET,MOE,3825,City of La Trobe,Latrobe (Capped Region),-38.1751,146.2626038
WAVERLEY RSL CLUB,Club,CNR COLEMAN PDE & GLENDALE STREET,GLEN WAVERLEY,3150,City of Monash,Monash City (Municipal Limit),-37.8801,145.1625061
MOONEE VALLEY RACING CLUB,Club,CORNER WILSON & THOMAS STREET,MOONEE PONDS,3039,City of Moonee Valley,Moonee Valley (Capped Region),-37.763242,144.930425
MORWELL HOTEL,Hotel,CORNER VINCENT STREET & PRINCES HIGHWAY,MORWELL,3840,City of La Trobe,Latrobe (Capped Region),-38.2387,146.4100952
EXCELSIOR HOTEL,Hotel,82 MAHONEY'S ROAD,THOMASTOWN,3074,City of Whittlesea,Whittlesea (Capped Region),-37.6926,145.0005951
NORTH BALLARAT SPORTS CLUB,Club,"BALLARAT SHOWGROUNDS RESERVE, CRESWICK ROAD",BALLARAT,3350,City of Ballarat,Ballarat (Capped Region),-37.5416,143.8491058
SWAN HILL RSL,Club,138 CURLEWIS STREET,SWAN HILL,3585,Rural City of Swan Hill,Swan Hill Rural City,-35.3412,143.561203
ROYAL EXCHANGE HOTEL,Hotel,64 PRINCES HIGHWAY,TRARALGON,3844,City of La Trobe,Latrobe (Capped Region),-38.1983,146.5355988
ROSEBUD RSL,Club,117 EASTBOURNE ROAD,ROSEBUD,3939,Mornington Peninsula Shire,Mornington Peninsula Shire,-38.368,144.9044952
CITY FAMILY HOTEL,Club,41-55 HIGH STREET,BENDIGO,3550,City of Greater Bendigo,Greater Bendigo City,-36.7606,144.2769928
WERRIBEE RSL,Club,"KELLY PARK, SYNOTT STREET",WERRIBEE,3030,City of Wyndham,Wyndham (Capped Region),-37.9005,144.6645966
MILLERS INN HOTEL,Hotel,204 MILLERS ROAD,ALTONA NORTH,3025,City of Hobsons Bay,Hobsons Bay (Capped Region),-37.8353,144.8468933
GRAND CENTRAL HOTEL (HAMILTON),Hotel,141 GRAY STREET,HAMILTON,3300,Shire of Southern Grampians,Southern Grampians Shire,-37.7429,142.0240021
WESTEND MARKET HOTEL,Hotel,47 MCINTYRE ROAD,SUNSHINE,3020,City of Brimbank,Brimbank (Capped Region),-37.7719,144.8264008
NOBLE PARK FOOTBALL SOCIAL CLUB,Club,46 MOODEMERE STREET,NOBLE PARK,3174,City of Greater Dandenong,Greater Dandenong (Capped Region),-37.9769,145.1681061
DANDENONG WORKERS SOCIAL CLUB,Club,48 WEDGE STREET,DANDENONG,3175,City of Greater Dandenong,Greater Dandenong (Capped Region),-37.9918,145.2265015
CASA D'ABRUZZO CLUB,Club,55 O'HERNS ROAD,EPPING,3076,City of Whittlesea,Whittlesea (Capped Region),-37.6381,145.0196075
FRANKSTON RSL,Club,183 CRANBOURNE ROAD,FRANKSTON,3199,City of Frankston,Frankston (Capped Region),-38.1508,145.147995
HIGHETT RETURNED & SERVICES CLUB,Club,1 STATION STREET,HIGHETT,3190,City of Kingston,Kingston City,-37.9499,145.0431976
CRANBOURNE SILKS,Club,1475 SOUTH GIPPSLAND HIGHWAY,CRANBOURNE,3977,City of Casey,Casey (Capped Region),-38.1175,145.2875977
THE BRIDGE HOTEL,Hotel,1 NEPEAN HIGHWAY,MORDIALLOC,3195,City of Kingston,Kingston City,-38.01,145.0879974
ALTONA RSL,Club,31 SARGOOD STREET,ALTONA,3018,City of Hobsons Bay,Hobsons Bay (Capped Region),-37.8675,144.8287964
SUNBURY BOWLING CLUB,Club,49 RIDDELL ROAD,SUNBURY,3429,City of Hume,Hume (Capped Region),-37.572,144.7225037
BOX HILL RSL,Club,26 NELSON ROAD,BOX HILL,3128,City of Whitehorse,Whitehorse City,-37.8154,145.1201935
SHEPPARTON RSL,Club,88 WYNDHAM STREET,SHEPPARTON,3630,City of Greater Shepparton,Greater Shepparton (Capped Region),-36.3744,145.3999939
TRARALGON RSL,Club,109-115 GREY STREET,TRARALGON,3844,City of La Trobe,Latrobe (Capped Region),-38.1929,146.5272064
WESTERNPORT HOTEL,Hotel,CORNER SALMON & HIGH STREETS,HASTINGS,3915,Mornington Peninsula Shire,Mornington Peninsula Shire,-38.3073,145.1929932
THE OLD TOWN 'N' COUNTRY TAVERN,Hotel,CNR GRETA ROAD & MASON STREET,WANGARATTA,3677,Rural City of Wangaratta,Wangaratta Rural City,-36.3766,146.3070068
MENTONE RSL,Club,9 PALERMO STREET,MENTONE,3194,City of Kingston,Kingston City,-37.9896,145.0662994
WATSONIA RSL,Club,6 MORWELL AVENUE,WATSONIA,3087,City of Banyule,Banyule (Capped Region),-37.7093,145.0820007
EDITHVALE - CHELSEA RSL,Club,4 THAMES PROMENADE,CHELSEA,3196,City of Kingston,Kingston City,-38.0504,145.1165009
ALBION CHARLES HOTEL,Hotel,2 CHARLES STREET,NORTHCOTE,3070,City of Darebin,Darebin (Capped Region),-37.7771,144.9904022
DANDENONG CLUB,Club,1579 HEATHERTON ROAD,DANDENONG,3175,City of Greater Dandenong,Greater Dandenong (Capped Region),-37.9705,145.2250061
FURLAN CLUB,Club,1 MATISI STREET,THORNBURY,3071,City of Darebin,Darebin (Capped Region),-37.7575,145.0279999
MORWELL CLUB,Club,136 HELEN STREET,MORWELL,3840,City of La Trobe,Latrobe (Capped Region),-38.234,146.391098
THE MOONEE PONDS CLUB,Club,622 MT ALEXANDER ROAD,MOONEE PONDS,3039,City of Moonee Valley,Moonee Valley (Capped Region),-37.7714,144.9266968
CHIRNSIDE PARK COUNTRY CLUB,Club,68 KINGSWOOD DRIVE,CHIRNSIDE PARK,3116,Shire of Yarra Ranges,Yarra Ranges Shire,-37.75,145.3255005
SHANGHAI CLUB,Hotel,242-244 LITTLE BOURKE STREET,MELBOURNE,3000,City of Melbourne,"Melbourne CBD, Docklands & Southbank Precincts",-37.8121,144.9656067
PRINCE MARK HOTEL,Hotel,CORNER POWER ROAD & PRINCES HIGHWAY,DOVETON,3177,City of Casey,Casey (Capped Region),-38.0005,145.2342072
GOLDEN NUGGET,Hotel,117 LONSDALE STREET,MELBOURNE,3000,City of Melbourne,"Melbourne CBD, Docklands & Southbank Precincts",-37.8105,144.9687958
KEILOR EAST RSL,Club,12-22 HOFFMANS ROAD,ESSENDON,3040,City of Moonee Valley,Moonee Valley (Capped Region),-37.7525,144.8901062
ITALIAN AUSTRALIAN SPORTING AND SOCIAL CLUB OF GIPPSLAND,Club,499-501 PRINCES HIGHWAY,MORWELL,3840,City of La Trobe,Latrobe (Capped Region),-38.2333,146.433197
SHOPPINGTOWN HOTEL,Hotel,13-21 WILLIAMSONS ROAD,DONCASTER,3108,City of Manningham,Manningham City,-37.7849,145.1237946
CLUB HOTEL (FERNTREE GULLY),Hotel,848 BURWOOD HIGHWAY,FERNTREE GULLY,3156,City of Knox,Knox City,-37.8827,145.2760925
HORSHAM RSL,Club,36 MCLACHLAN STREET,HORSHAM,3400,Rural City of Horsham,Horsham Rural City,-36.7129,142.1999969
RISING SUN HOTEL,Hotel,84 BARNARD STREET,BENDIGO,3550,City of Greater Bendigo,Greater Bendigo City,-36.7502,144.2828064
MOUNTAIN VIEW HOTEL,Hotel,186 SPRINGVALE ROAD,GLEN WAVERLEY,3150,City of Monash,Monash City (Municipal Limit),-37.8739,145.1674042
TAYLORS LAKES FAMILY HOTEL,Hotel,7 MELTON HIGHWAY,TAYLORS LAKES,3038,City of Brimbank,Brimbank (Capped Region),-37.7023,144.7998047
CLAYTON RSL,Club,163 CARINISH ROAD,CLAYTON,3168,City of Monash,Monash (Capped Region),-37.9254,145.1226044
CUMBERLAND HOTEL,Hotel,191 BARKER STREET,CASTLEMAINE,3450,Shire of Mount Alexander,Mount Alexander Shire,-37.0646,144.216507
BLUE BELL HOTEL,Hotel,1216 HOWITT STREET,WENDOUREE,3355,City of Ballarat,Ballarat (Capped Region),-37.5396,143.8294983
GROVEDALE HOTEL,Hotel,236-258 TORQUAY ROAD,GROVEDALE,3216,City of Greater Geelong,Greater Geelong and Queenscliffe (Capped Region),-38.2031,144.3414001
BOUNDARY TAVERNER,Hotel,726 CENTRE ROAD,BENTLEIGH EAST,3165,City of Glen Eira,Glen Eira City,-37.9212,145.058197
NORLANE HOTEL,Hotel,2-6 PRINCES HIGHWAY,NORLANE,3214,City of Greater Geelong,Greater Geelong and Queenscliffe (Capped Region),-38.0985,144.355896
CRAIG'S ROYAL HOTEL,Hotel,10 LYDIARD STREET SOUTH,BALLARAT,3350,City of Ballarat,Ballarat (Capped Region),-37.5626,143.857193
THE ROYAL HOTEL FERNTREE GULLY,Hotel,1208 BURWOOD HIGHWAY,FERNTREE GULLY,3156,City of Knox,Knox City,-37.8939,145.3096008
ROSEBUD HOTEL,Hotel,1099 POINT NEPEAN ROAD,ROSEBUD,3939,Mornington Peninsula Shire,Mornington Peninsula Shire,-38.3567,144.902298
CROYDON HOTEL,Hotel,47 MAROONDAH HIGHWAY,CROYDON,3136,City of Maroondah,Maroondah (Capped Region),-37.7905,145.2631989
WHEELERS HILL HOTEL,Hotel,871-891 FERNTREE GULLY ROAD,WHEELERS HILL,3150,City of Monash,Monash City (Municipal Limit),-37.9063,145.1894989
ROYAL HOTEL (SUNBURY),Hotel,63 EVANS STREET,SUNBURY,3429,City of Hume,Hume (Capped Region),-37.5802,144.729599
SOUTH OAKLEIGH CLUB,Club,1 VICTOR ROAD,BENTLEIGH EAST,3165,City of Glen Eira,Glen Eira City,-37.9313,145.0756073
EASTWOOD GOLF CLUB,Club,LIVERPOOL ROAD,KILSYTH,3137,City of Maroondah,Maroondah (Capped Region),-37.8355,145.3148041
MOTOR CLUB HOTEL,Hotel,38-56 HIGH STREET,CRANBOURNE,3977,City of Casey,Casey (Capped Region),-38.1114,145.283493
RYE HOTEL,Hotel,2415 POINT NEPEAN ROAD,RYE,3941,Mornington Peninsula Shire,Mornington Peninsula Shire,-38.3703,144.8204956
CAULFIELD GLASSHOUSE,Club,STATION STREET,CAULFIELD EAST,3145,City of Glen Eira,Glen Eira City,-37.8772,145.0395966
GEELONG RSL,Club,50 BARWON HEADS ROAD,BELMONT,3216,City of Greater Geelong,Greater Geelong and Queenscliffe (Capped Region),-38.1734,144.3509064
DINGLEY INTERNATIONAL HOTEL,Hotel,334 BOUNDARY ROAD,DINGLEY,3172,City of Kingston,Kingston City,-37.9792,145.1123962
DEER PARK HOTEL,Hotel,760 BALLARAT ROAD,DEER PARK,3023,City of Brimbank,Brimbank (Capped Region),-37.7706,144.7879944
HEADQUARTERS TAVERN,Club,EPSOM ROAD,FLEMINGTON,3031,City of Melbourne,Melbourne (Capped Region),-37.7891,144.9071045
ALBION HOTEL,Hotel,327 LONSDALE STREET,DANDENONG,3175,City of Greater Dandenong,Greater Dandenong (Capped Region),-37.9859,145.213501
GREENSBOROUGH RSL,Club,111 MAIN STREET,GREENSBOROUGH,3088,City of Banyule,Banyule City (Municipal Limit),-37.7018,145.1054993
COMMERCIAL TAVERNER,Hotel,111 WATTON STREET,WERRIBEE,3030,City of Wyndham,Wyndham (Capped Region),-37.9022,144.6605072
HOPPERS CROSSING CLUB,Club,180 - 200 PANNAM DRIVE,HOPPERS CROSSING,3029,City of Wyndham,Wyndham (Capped Region),-37.8693,144.6923981
AMSTEL GOLF CLUB,Club,1000 CRANBOURNE-FRANKSTON ROAD,CRANBOURNE,3977,City of Casey,Casey (Capped Region),-38.1112,145.2579956
BAIRNSDALE RSL,Club,2 FORGE CREEK ROAD,BAIRNSDALE,3875,Shire of East Gippsland,East Gippsland (Capped Region),-37.8322,147.6105957
WHALERS HOTEL,Hotel,53 LIEBIG STREET,WARRNAMBOOL,3280,City of Warrnambool,Warrnambool (Capped Region),-38.3858,142.4812927
TORQUAY HOTEL,Hotel,36 BELL STREET,TORQUAY,3228,Surf Coast Shire,Surf Coast Shire,-38.3382,144.319397
MULGRAVE COUNTRY CLUB,Club,CNR JELLS AND WELLINGTON RD,WHEELERS HILL,3150,City of Monash,Monash City (Municipal Limit),-37.921,145.1853027
SANDRINGHAM HOTEL,Hotel,118 BEACH ROAD,SANDRINGHAM,3191,City of Bayside,Bayside City,-37.9512,145.0032959
OCEAN GROVE BOWLING CLUB,Club,18 THE TERRACE,OCEAN GROVE,3226,City of Greater Geelong,Greater Geelong and Queenscliffe (Capped Region),-38.2659,144.5169067
TRARALGON BOWLS CLUB,Club,CNR GWALIA STREET & LIDDIARD ROAD,TRARALGON,3844,City of La Trobe,Latrobe (Capped Region),-38.1943,146.5514069
MAROONDAH SPORTS CLUB,Club,CNR MT DANDENONG ROAD AND DUBLIN ROAD,RINGWOOD EAST,3135,City of Maroondah,Maroondah (Capped Region),-37.809,145.2453003
KOORINGAL GOLF CLUB,Club,WILGA AVENUE,ALTONA,3018,City of Hobsons Bay,Hobsons Bay (Capped Region),-37.8736,144.8119965
ROSEBUD COUNTRY CLUB,Club,BONEO ROAD,ROSEBUD,3939,Mornington Peninsula Shire,Mornington Peninsula Shire,-38.3788,144.8993988
THE VALE HOTEL,Hotel,2277 DANDENONG ROAD,MULGRAVE,3170,City of Monash,Monash (Capped Region),-37.9307,145.1548004
THE BENDIGO CLUB,Club,22 PARK STREET,BENDIGO,3550,City of Greater Bendigo,Greater Bendigo City,-36.762,144.3123932
CHALAMBAR GOLF CLUB,Club,118 GOLF LINKS ROAD,ARARAT,3377,Rural City of Ararat,Ararat Rural City,-37.2701,142.9111938
GREYHOUNDS ENTERTAINMENT,Club,LIGHTWOOD ROAD,SPRINGVALE,3171,City of Greater Dandenong,Greater Dandenong (Capped Region),-37.957,145.1587067
WARRNAMBOOL FOOTBALL CLUB SOCIAL CLUB,Club,CRAMER STREET,WARRNAMBOOL,3280,City of Warrnambool,Warrnambool (Capped Region),-38.38,142.4947052
KEYSBOROUGH HOTEL,Hotel,CNR CORRIGAN & CHELTENHAM RDS,KEYSBOROUGH,3173,City of Greater Dandenong,Greater Dandenong (Capped Region),-37.9923,145.1622925
GLADSTONE PARK HOTEL,Hotel,186-202 MICKLEHAM ROAD,TULLAMARINE,3043,City of Hume,Hume (Capped Region),-37.6876,144.8831024
SPRINGVALE RSL CLUB,Club,23 OSBORNE AVENUE,SPRINGVALE,3171,City of Greater Dandenong,Greater Dandenong (Capped Region),-37.9462,145.1459961
ANGLESEA GOLF CLUB,Club,GOLF LINKS ROAD,ANGLESEA,3230,Surf Coast Shire,Surf Coast Shire,-38.406,144.1705933
SEAFORD RSL,Club,17 STATION STREET,SEAFORD,3198,City of Frankston,Frankston (Capped Region),-38.1029,145.128006
CITY MEMORIAL BOWLS CLUB,Club,50-58 CRAMER STREET,WARRNAMBOOL,3280,City of Warrnambool,Warrnambool (Capped Region),-38.3775,142.4958038
DANDENONG RSL,Club,44 - 50 CLOW STREET,DANDENONG,3175,City of Greater Dandenong,Greater Dandenong (Capped Region),-37.9857,145.219696
RINGWOOD RSL,Club,16 STATION STREET,RINGWOOD,3134,City of Maroondah,Maroondah (Capped Region),-37.8168,145.2285004
STAR HOTEL (SALE),Hotel,173 RAYMOND STREET,SALE,3850,Shire of Wellington,Wellington (Capped Region),-38.109,147.065506
BOX HILL GOLF CLUB,Club,202 STATION STREET,BOX HILL,3128,City of Whitehorse,Whitehorse City,-37.8397,145.121994
WINDERMERE HOTEL,Hotel,112 HIGH STREET,KANGAROO FLAT,3555,City of Greater Bendigo,Greater Bendigo City,-36.7955,144.2436981
SHELL CLUB,Club,76 PURNELL ROAD,CORIO,3214,City of Greater Geelong,Greater Geelong and Queenscliffe (Capped Region),-38.0725,144.3601074
HAMPTON PARK TAVERN,Hotel,71 HALLAM ROAD,HAMPTON PARK,3976,City of Casey,Casey (Capped Region),-38.0344,145.2669067
MAC'S HOTEL (MELTON),Hotel,322-332 HIGH STREET,MELTON,3337,City of Melton,Melton City,-37.6826,144.5802002
BAYSWATER HOTEL,Hotel,780 MOUNTAIN HIGHWAY,BAYSWATER,3153,City of Knox,Knox City,-37.8409,145.2680054
COLAC RSL,Club,21 MURRAY STREET,COLAC,3250,Shire of Colac-Otway,Colac-Otway Shire,-38.3392,143.5906067
BAIRNSDALE CLUB,Club,68 NICHOLSON STREET,BAIRNSDALE,3875,Shire of East Gippsland,East Gippsland (Capped Region),-37.8244,147.6302948
NOBLE PARK RSL,Club,1128 HEATHERTON ROAD,NOBLE PARK,3174,City of Greater Dandenong,Greater Dandenong (Capped Region),-37.9656,145.1761017
RAILWAY CLUB HOTEL,Hotel,28 STATION STREET,SEYMOUR,3660,Shire of Mitchell,Mitchell Shire,-37.0239,145.1378937
SALE & DISTRICT GREYHOUND RACING CLUB,Club,SALE-MAFFRA ROAD,SALE,3850,Shire of Wellington,Wellington (Capped Region),-38.0916,147.0641022
LANGWARRIN HOTEL,Hotel,CNR UNION & CRANBOURNE ROADS,LANGWARRIN,3910,City of Frankston,Frankston City (Municipal Limit),-38.1513,145.1949005
BROADMEADOWS SPORTING CLUB,Club,111 SUNSET BOULEVARD,JACANA,3047,City of Hume,Hume (Capped Region),-37.6911,144.9098053
BENTLEIGH RSL,Club,538 CENTRE ROAD,BENTLEIGH,3204,City of Glen Eira,Glen Eira City,-37.9191,145.0424957
ROSSTOWN HOTEL,Hotel,1084 DANDENONG ROAD,CARNEGIE,3163,City of Glen Eira,Glen Eira City,-37.8843,145.0576019
ESPLANADE HOTEL (INVERLOCH),Hotel,1 A'BECKETT STREET,INVERLOCH,3996,Bass Coast Shire,Bass Coast (Capped Region),-38.6341,145.7286987
ELGIN'S,Hotel,51-53 ELGIN BOULEVARD,WODONGA,3690,Rural City of Wodonga,Wodonga City,-36.1205,146.8842926
BLAZING STUMP HOTEL,Hotel,4315 ANZAC PARADE,WODONGA,3690,Rural City of Wodonga,Wodonga City,-36.1395,146.9122925
PULLMAN MELBOURNE ON SWANSTON (BLACK OPAL),Hotel,195 SWANSTON STREET,MELBOURNE,3000,City of Melbourne,"Melbourne CBD, Docklands & Southbank Precincts",-37.813,144.9649963
CLOCKS AT FLINDERS STREET STATION,Club,"SHOP 17, FLINDERS STREET RAILWAY STATION",MELBOURNE,3000,City of Melbourne,"Melbourne CBD, Docklands & Southbank Precincts",-37.8186,144.9674988
UNION CLUB HOTEL,Hotel,110 MURRAY STREET,COLAC,3250,Shire of Colac-Otway,Colac-Otway Shire,-38.3399,143.5872955
EDWARDES LAKE HOTEL,Hotel,257 EDWARDES STREET,RESERVOIR,3073,City of Darebin,Darebin (Capped Region),-37.7155,144.9893951
GLENGALA HOTEL,Hotel,214 GLENGALA ROAD,SUNSHINE,3020,City of Brimbank,Brimbank (Capped Region),-37.7866,144.8027039
NORTHCOTE PARK FOOTBALL CLUB,Club,71 SYDNEY ROAD,BRUNSWICK,3056,City of Moreland,Moreland (Capped Region),-37.7759,144.9602966
IVANHOE HOTEL,Hotel,120 UPPER HEIDELBERG ROAD,IVANHOE,3079,City of Banyule,Banyule (Capped Region),-37.7694,145.0419006
DAREBIN RSL,Club,402 BELL STREET,PRESTON,3072,City of Darebin,Darebin (Capped Region),-37.7441,144.9985046
DEER PARK CLUB,Club,780 BALLARAT ROAD,DEER PARK,3023,City of Brimbank,Brimbank (Capped Region),-37.77,144.7807007
BAXTER TAVERN HOTEL MOTEL,Hotel,117 BAXTER-TOORADIN ROAD,BAXTER,3911,Mornington Peninsula Shire,Mornington Peninsula Shire,-38.196,145.1607971
PORTLAND MEMORIAL BOWLING CLUB,Club,33 CAPE NELSON ROAD,PORTLAND,3305,Shire of Glenelg,Glenelg Shire,-38.3594,141.6060944
MARINE HOTEL,Hotel,215 NEW STREET,BRIGHTON,3186,City of Bayside,Bayside City,-37.9132,144.9911041
PASCOE VALE RSL,Club,40 CUMBERLAND ROAD,PASCOE VALE,3044,City of Moreland,Moreland City (Municipal Limit),-37.7346,144.9382935
ABRUZZO CLUB,Club,377 LYGON STREET,EAST BRUNSWICK,3057,City of Moreland,Moreland (Capped Region),-37.766,144.9723969
ANGEL TAVERN,Hotel,641 DANDENONG ROAD,MALVERN,3144,City of Stonnington,Stonnington City,-37.8659,145.0278931
GRAND JUNCTION HOTEL,Hotel,8-22 FRANKLIN STREET,TRARALGON,3844,City of La Trobe,Latrobe (Capped Region),-38.1979,146.5381012
MVRC JUNCTION CLUB,Club,740 MT ALEXANDER ROAD,MOONEE PONDS,3039,City of Moonee Valley,Moonee Valley (Capped Region),-37.7674,144.925705
MEADOW INN HOTEL,Hotel,1435 SYDNEY ROAD,FAWKNER,3060,City of Hume,Hume (Capped Region),-37.6902,144.9573059
COOLAROO TAVERNER,Hotel,CNR BARRY ROAD & MAFFRA STREET,COOLAROO,3048,City of Hume,Hume (Capped Region),-37.6649,144.9416962
RIVERSDALE HOTEL,Hotel,277 AUBURN ROAD,HAWTHORN,3122,City of Boroondara,Boroondara City,-37.8301,145.0437927
ROYAL OAK RICHMOND,Club,527 BRIDGE ROAD,RICHMOND,3121,City of Yarra,Yarra City,-37.8193,145.0084991
GOLDEN FLEECE HOTEL (MELTON),Hotel,257-263 HIGH STREET,MELTON,3337,City of Melton,Melton City,-37.6833,144.5852966
DERRIMUT HOTEL,Hotel,132 DURHAM ROAD,SUNSHINE,3020,City of Brimbank,Brimbank (Capped Region),-37.7881,144.8303986
RACECOURSE HOTEL (WERRIBEE),Hotel,78 COTTRELL STREET,WERRIBEE,3030,City of Wyndham,Wyndham (Capped Region),-37.9017,144.6528931
SEAFORD TAVERNER,Hotel,CNR SEAFORD & FRANKSTON  DANDENONG ROADS,SEAFORD,3198,City of Frankston,Frankston (Capped Region),-38.1127,145.1555023
CROXTON PARK HOTEL,Hotel,607-619 HIGH STREET,THORNBURY,3071,City of Darebin,Darebin (Capped Region),-37.7625,145.0005035
YARRAVILLE CLUB CRICKET CLUB,Club,CORNER BALLARAT & ROSAMOND ROADS,MAIDSTONE,3012,City of Maribyrnong,Maribyrnong (Capped Region),-37.7881,144.8827972
PRAHRAN FOOTBALL SOCIAL CLUB,Club,"1ST FLOOR, 328-338 CHAPEL STREET",PRAHRAN,3181,City of Stonnington,Stonnington City,-37.8489,144.9927979
HASTINGS CRICKET & FOOTBALL SOCIAL CLUB,Club,155 MARINE PARADE,HASTINGS,3915,Mornington Peninsula Shire,Mornington Peninsula Shire,-38.2966,145.1869965
HORSHAM SPORTS & COMMUNITY CLUB,Club,177-181 BAILLIE ST,HORSHAM,3400,Rural City of Horsham,Horsham Rural City,-36.712,142.1985931
ROYAL HOTEL (BENALLA),Hotel,2 BRIDGE STREET,BENALLA,3672,Rural City of Benalla,Benalla City,-36.554,145.976593
BENDIGO STADIUM,Club,134 MARONG ROAD,GOLDEN SQUARE,3555,City of Greater Bendigo,Greater Bendigo City,-36.7586,144.2478027
GREEN GULLY SOCCER CLUB,Club,"GREEN GULLY RESERVE , CLUBHOUSE PLACE",KEILOR DOWNS,3038,City of Brimbank,Brimbank (Capped Region),-37.7241,144.8179016
KORUMBURRA HOTEL,Hotel,81 COMMERCIAL STREET,KORUMBURRA,3950,Shire of South Gippsland,South Gippsland Shire,-38.4319,145.822998
KEILOR HOTEL,Hotel,670 OLD CALDER HIGHWAY,KEILOR,3036,City of Brimbank,Brimbank (Capped Region),-37.7193,144.8365021
THE INTERNATIONAL,Club,471 MAROONDAH HIGHWAY,LILYDALE,3140,Shire of Yarra Ranges,Yarra Ranges Shire,-37.7523,145.3647003
GORDON HOTEL,Hotel,63 BENTINCK STREET,PORTLAND,3305,Shire of Glenelg,Glenelg Shire,-38.3496,141.6056061
MONTMORENCY RSL,Club,"PETRIE PARK, 16 MOUNTAIN VIEW ROAD",MONTMORENCY,3094,City of Banyule,Banyule City (Municipal Limit),-37.717,145.1257019
PAKENHAM HOTEL,Hotel,226 PRINCES HIGHWAY,PAKENHAM,3810,Shire of Cardinia,Cardinia Shire,-38.0638,145.4649048
PLAYERS HOTEL,Hotel,1-5 SCOTT STREET,DANDENONG,3175,City of Greater Dandenong,Greater Dandenong (Capped Region),-37.9864,145.2131042
KNOX TAVERN,Hotel,"1 CAPITAL CITY BOULEVARD, KNOX DISTRICT CENTRE",WANTIRNA SOUTH,3152,City of Knox,Knox City,-37.8701,145.2444
THE RICHMOND SOCIAL,Hotel,157 SWAN STREET,RICHMOND,3121,City of Yarra,Yarra City,-37.8253,144.9965057
ALEXANDRA HOUSE SPORTS CLUB,Club,134 BROWN STREET,HAMILTON,3300,Shire of Southern Grampians,Southern Grampians Shire,-37.7398,142.0231934
BELL PARK SPORT & RECREATION CLUB,Club,34-70 CALVERT STREET,HAMLYN HEIGHTS,3215,City of Greater Geelong,Greater Geelong and Queenscliffe (Capped Region),-38.1232,144.3318024
WESTSIDE TAVERNER,Hotel,3-5 FITZGERALD ROAD,LAVERTON NORTH,3026,City of Wyndham,Wyndham (Capped Region),-37.8445,144.7792053
MITCHAM HOTEL,Hotel,556 MAROONDAH HIGHWAY,MITCHAM,3132,City of Whitehorse,Whitehorse City,-37.8167,145.1940002
PENINSULA HOTEL MOTEL,Hotel,195 BELLARINE HIGHWAY,NEWCOMB,3219,City of Greater Geelong,Greater Geelong and Queenscliffe (Capped Region),-38.1736,144.4062042
DONCASTER HOTEL,Hotel,855 DONCASTER ROAD,DONCASTER,3108,City of Manningham,Manningham City,-37.7866,145.1432953
WONTHAGGI GOLF CLUB,Club,MCKENZIE STREET,WONTHAGGI,3995,Bass Coast Shire,Bass Coast (Capped Region),-38.597,145.5899963
KIRKPATRICKS HOTEL,Hotel,774 THE ESPLANADE,MORNINGTON,3931,Mornington Peninsula Shire,Mornington Peninsula Shire,-38.2181,145.0328064
HIGHPOINT TAVERNER,Hotel,"HIGHPOINT SHOPPING CENTRE, 200 ROSAMOND ROAD",MARIBYRNONG,3032,City of Maribyrnong,Maribyrnong (Capped Region),-37.7731,144.8883057
CRAIGIEBURN SPORTING CLUB,Club,"WILLMOTT PARK, CRAIGIEBURN ROAD",CRAIGIEBURN,3064,City of Hume,Hume (Capped Region),-37.599,144.9203033
SHERBOURNE TERRACE,Hotel,109 WYNDHAM STREET,SHEPPARTON,3630,City of Greater Shepparton,Greater Shepparton (Capped Region),-36.3756,145.4008026
FOUNTAIN GATE TAVERNER,Hotel,"FOUNTAIN GATE SHOPPING CENTRE, OVERLAND DRIVE",NARRE WARREN,3805,City of Casey,Casey (Capped Region),-38.0187,145.3031006
BUNDOORA TAVERNER,Hotel,49 PLENTY ROAD,BUNDOORA,3083,City of Whittlesea,Whittlesea (Capped Region),-37.6956,145.0587006
POWELL HOTEL,Hotel,202 BALLARAT ROAD,FOOTSCRAY,3011,City of Maribyrnong,Maribyrnong (Capped Region),-37.7906,144.8892059
FERNTREE GULLY HOTEL,Hotel,1130 BURWOOD HIGHWAY,FERNTREE GULLY,3156,City of Knox,Knox City,-37.889,145.2971039
PALACE HOTEL,Hotel,893 BURKE ROAD,CAMBERWELL,3124,City of Boroondara,Boroondara City,-37.8262,145.0572968
RIVIERA HOTEL,Hotel,30 NEPEAN HIGHWAY,SEAFORD,3198,City of Frankston,Frankston (Capped Region),-38.0888,145.1235046
DIAMOND CREEK HOTEL,Hotel,29 MAIN ROAD,DIAMOND CREEK,3089,Shire of Nillumbik,Nillumbik Shire,-37.6761,145.145401
KEALBA HOTEL,Hotel,CNR SUNSHINE AVENUE & MAIN ROAD EAST,KEALBA,3021,City of Brimbank,Brimbank (Capped Region),-37.7471,144.8289032
LINCOLNSHIRE ARMS HOTEL,Hotel,1 KEILOR ROAD,ESSENDON,3040,City of Moonee Valley,Moonee Valley (Capped Region),-37.7445,144.9096985
GLENROY RSL,Club,186 GLENROY ROAD,GLENROY,3046,City of Moreland,Moreland City (Municipal Limit),-37.7052,144.9196014
PLAYERS ON LYGON,Hotel,186-200 LYGON STREET,CARLTON,3053,City of Melbourne,Melbourne (Capped Region),-37.8024,144.9669952
KYABRAM CLUB,Club,82 ALLAN STREET,KYABRAM,3620,Shire of Campaspe,Campaspe Shire,-36.3138,145.0410004
SHAMROCK HOTEL,Hotel,CNR PALL MALL & WILLIAMSON STREET,BENDIGO,3550,City of Greater Bendigo,Greater Bendigo City,-36.7578,144.281601
LEOPOLD SPORTSMANS CLUB,Club,135 KENSINGTON ROAD,LEOPOLD,3224,City of Greater Geelong,Greater Geelong and Queenscliffe (Capped Region),-38.1769,144.4658051
GEELONG COMBINED LEAGUES CLUB,Club,54 FELLMONGERS ROAD,BREAKWATER,3219,City of Greater Geelong,Greater Geelong and Queenscliffe (Capped Region),-38.1806,144.3811035
TEMPLESTOWE HOTEL,Hotel,23-29 PARKER STREET,LOWER TEMPLESTOWE,3107,City of Manningham,Manningham City,-37.7562,145.1172943
VILLAGE GREEN HOTEL,Hotel,CNR SPRINGVALE & FERNTREE GULLY ROAD,MULGRAVE,3170,City of Monash,Monash (Capped Region),-37.9042,145.1600952
TOWER HOTEL,Hotel,686 BURWOOD ROAD,EAST HAWTHORN,3123,City of Boroondara,Boroondara City,-37.8258,145.0478973
SANDBELT CLUB HOTEL,Hotel,630-646 SOUTH ROAD,MOORABBIN,3189,City of Kingston,Kingston City,-37.9384,145.0675049
HEALESVILLE RSL,Club,275-279 MAROONDAH HIGHWAY,HEALESVILLE,3777,Shire of Yarra Ranges,Yarra Ranges Shire,-37.6518,145.5211945
MYRTLEFORD SAVOY SPORTING CLUB,Club,252-254 MYRTLE STREET,MYRTLEFORD,3737,Alpine Shire,Alpine Shire,-36.5545,146.7151031
SPORTSPARK GAMING AND ENTERTAINMENT CENTRE,Club,CNR GREVILLEA ROAD & DOWLING STREET,WENDOUREE,3355,City of Ballarat,Ballarat (Capped Region),-37.5285,143.8419037
KINGS CREEK HOTEL,Hotel,1989 FRANKSTON-FLINDERS ROAD,HASTINGS,3915,Mornington Peninsula Shire,Mornington Peninsula Shire,-38.2989,145.1842041
CAULFIELD RSL,Club,4 ST GEORGES ROAD,ELSTERNWICK,3185,City of Glen Eira,Glen Eira City,-37.884,145.0032959
DAYLESFORD BOWLING CLUB,Club,8 CAMP STREET,DAYLESFORD,3460,Shire of Hepburn,Hepburn Shire,-37.3413,144.1452026
DROMANA HOTEL,Hotel,151-165 NEPEAN HIGHWAY,DROMANA,3936,Mornington Peninsula Shire,Mornington Peninsula Shire,-38.3315,144.9676056
TOORADIN & DISTRICT SPORTS CLUB,Club,"RECREATION RESERVE, SOUTH GIPPSLAND HIGHWAY",TOORADIN,3980,City of Casey,Casey City (Municipal Limit),-38.2102,145.375
MOOROOPNA GOLF CLUB,Club,2 FAIRWAY DRIVE,MOOROOPNA,3629,City of Greater Shepparton,Greater Shepparton (Capped Region),-36.3866,145.3600006
SUNBURY SOCIAL CLUB,Club,"CLARKE OVAL, 47 RIDDELL ROAD",SUNBURY,3429,City of Hume,Hume (Capped Region),-37.5749,144.7210999
SPHINX ENTERTAINMENT CENTRE,Hotel,2 THOMPSON ROAD,NORTH GEELONG,3215,City of Greater Geelong,Greater Geelong and Queenscliffe (Capped Region),-38.1259,144.3421936
MARYBOROUGH GOLF CLUB,Club,125 PARK ROAD,MARYBOROUGH,3465,Shire of Central Goldfields,Central Goldfields (Capped Region),-37.0319,143.7424927
LEONGATHA RSL,Club,CORNER SMITH STREET AND MICHAEL PLACE,LEONGATHA,3953,Shire of South Gippsland,South Gippsland Shire,-38.4754,145.9452057
THE BRUNSWICK CLUB,Club,203 SYDNEY ROAD,BRUNSWICK,3056,City of Moreland,Moreland (Capped Region),-37.7725,144.960907
ST KILDA ARMY & NAVY CLUB,Club,88 ACLAND STREET,ST KILDA,3182,City of Port Phillip,Port Phillip City,-37.8674,144.9790955
BENALLA BOWLS CLUB,Club,25 ARUNDEL STREET,BENALLA,3672,Rural City of Benalla,Benalla City,-36.5525,145.9759979
WONTHAGGI WORKMEN'S CLUB,Club,75 GRAHAM STREET,WONTHAGGI,3995,Bass Coast Shire,Bass Coast (Capped Region),-38.6062,145.5928955
BENDIGO DISTRICT RSL CLUB,Club,73-75 HAVILAH ROAD,BENDIGO,3550,City of Greater Bendigo,Greater Bendigo City,-36.7392,144.2682953
GROSVENOR HOTEL,Hotel,10 BRIGHTON ROAD,ST KILDA,3182,City of Port Phillip,Port Phillip City,-37.8722,144.9902954
THE SETTLEMENT AT CRANBOURNE,Hotel,CNR SOUTH GIPPSLAND HIGHWAY & CAMMS ROAD,CRANBOURNE,3977,City of Casey,Casey (Capped Region),-38.0975,145.283493
CHELTENHAM MOORABBIN RSL,Club,289 CENTRE DANDENONG ROAD,CHELTENHAM,3192,City of Kingston,Kingston City,-37.9678,145.0657043
BOURKE HILL'S WELCOME STRANGER,Hotel,128 BOURKE STREET,MELBOURNE,3000,City of Melbourne,"Melbourne CBD, Docklands & Southbank Precincts",-37.812,144.9691925
ITALIAN SPORTS CLUB OF WERRIBEE,Club,601 HEATHS ROAD,WERRIBEE,3030,City of Wyndham,Wyndham (Capped Region),-37.884,144.6475983
OLINDA CREEK HOTEL,Hotel,161 MAIN STREET,LILYDALE,3140,Shire of Yarra Ranges,Yarra Ranges Shire,-37.7569,145.3489075
FOSTER GOLF CLUB,Club,7 RESERVE STREET,FOSTER,3960,Shire of South Gippsland,South Gippsland Shire,-38.655,146.1958008
VICTORIA HOTEL (SHEPPARTON),Hotel,CNR WYNDHAM & FRYERS STREETS,SHEPPARTON,3630,City of Greater Shepparton,Greater Shepparton (Capped Region),-36.3787,145.3993988
HAMPTON BOWLS CLUB,Club,CNR FEWSTER ROAD & EARLSFIELD ROAD,HAMPTON,3188,City of Bayside,Bayside City,-37.9373,145.0149994
PENINSULA CLUB,Club,1-3 NOEL STREET,DROMANA,3936,Mornington Peninsula Shire,Mornington Peninsula Shire,-38.3341,144.9656067
GOLDEN POINT HOTEL,Hotel,629 - 643 MAIN ROAD,BALLARAT,3350,City of Ballarat,Ballarat (Capped Region),-37.5821,143.8683014
VILLAGE BELLE HOTEL,Hotel,202 BARKLY STREET,ST KILDA,3182,City of Port Phillip,Port Phillip City,-37.8695,144.9810028
ALL SEASONS INTERNATIONAL HOTEL BENDIGO,Hotel,171-183 MCIVOR HIGHWAY,BENDIGO,3550,City of Greater Bendigo,Greater Bendigo City,-36.7583,144.3115997
SUNSHINE CITY CLUB,Club,24 TALMAGE STREET,SUNSHINE,3020,City of Brimbank,Brimbank (Capped Region),-37.7791,144.824295
BUNDOORA BOWLING CLUB,Club,"YULONG RESERVE, CAMERON PARADE",BUNDOORA,3083,City of Banyule,Banyule (Capped Region),-37.6972,145.0610962
AUSTRALIAN CROATIAN NATIONAL HALL,Club,101-111 SEPARATION STREET,BELL PARK,3215,City of Greater Geelong,Greater Geelong and Queenscliffe (Capped Region),-38.1109,144.3419952
The CAMDEN TOWN HOTEL,Hotel,414 HAWTHORN ROAD,CAULFIELD,3162,City of Glen Eira,Glen Eira City,-37.8894,145.0211029
BROWNS CORNER,Hotel,502 SYDNEY ROAD,COBURG,3058,City of Moreland,Moreland (Capped Region),-37.7415,144.9667969
GREENSBOROUGH HOTEL,Hotel,75 MAIN STREET,GREENSBOROUGH,3088,City of Banyule,Banyule City (Municipal Limit),-37.7028,145.1047058
HARP OF ERIN HOTEL,Hotel,636 HIGH STREET,KEW EAST,3102,City of Boroondara,Boroondara City,-37.7991,145.0514069
WERRIBEE PLAZA TAVERN,Hotel,CNR DERRIMUT AND HEATH ROADS,WERRIBEE,3030,City of Wyndham,Wyndham (Capped Region),-37.8763,144.6815033
THE ORBOST CLUB,Club,67-69 GLADSTONE STREET,ORBOST,3888,Shire of East Gippsland,East Gippsland (Capped Region),-37.7024,148.4600067
YARRAVILLE-FOOTSCRAY BOWLING CLUB,Club,CNR FRANCIS & HAWKHURST STREET,YARRAVILLE,3013,City of Maribyrnong,Maribyrnong (Capped Region),-37.8197,144.8695984
HOPPERS CROSSING SPORTS CLUB,Club,"HOGANS RESERVE, HOGANS ROAD",HOPPERS CROSSING,3029,City of Wyndham,Wyndham (Capped Region),-37.8628,144.6938934
MANSFIELD GOLF CLUB,Club,KIDSTON PARADE,MANSFIELD,3722,Shire of Mansfield,Mansfield Shire,-37.061,146.0769043
PLOUGH HOTEL,Hotel,CHILDS ROAD,MILL PARK,3082,City of Whittlesea,Whittlesea (Capped Region),-37.6668,145.0608063
POLISH COMMUNITY ASSOC IN GEELONG,Club,46-48 FELLMONGERS ROAD,BREAKWATER,3219,City of Greater Geelong,Greater Geelong and Queenscliffe (Capped Region),-38.1809,144.378006
MORDIALLOC SPORTING CLUB,Club,528 MAIN STREET,MORDIALLOC,3195,City of Kingston,Kingston City,-38.0053,145.0847931
MORWELL BOWLING CLUB,Club,52 HAZELWOOD ROAD,MORWELL,3840,City of La Trobe,Latrobe (Capped Region),-38.2419,146.3930054
ST ALBANS SPORTS CLUB,Club,"KINGS PARK RESERVE, GILLESPIE ROAD",ST ALBANS,3021,City of Brimbank,Brimbank (Capped Region),-37.7326,144.7765961
LAKES ENTRANCE BOWLS CLUB,Club,CNR BULMER & ROWE STREETS,LAKES ENTRANCE,3909,Shire of East Gippsland,East Gippsland (Capped Region),-37.8779,147.9886932
THE PRINCE OF WALES HOTEL - RICHMOND,Hotel,109 CHURCH STREET,RICHMOND,3121,City of Yarra,Yarra City,-37.8146,145.0001984
COURT HOUSE HOTEL (BACCHUS MARSH),Hotel,116 MAIN STREET,BACCHUS MARSH,3340,Shire of Moorabool,Moorabool Shire,-37.6754,144.436203
MVRC LEIGHOAK CLUB,Club,CNR PRINCES HIGHWAY & ATKINSON STREET,OAKLEIGH,3166,City of Monash,Monash (Capped Region),-37.8931,145.0930023
THE CHASE HOTEL,Hotel,"TENANCY 304 LEVEL 3, 270 CANTERBURY ROAD",FOREST HILL,3131,City of Whitehorse,Whitehorse City,-37.8353,145.1647949
FERNTREE GULLY BOWLING CLUB,Club,14 MERRICKS CLOSE,FERNTREE GULLY,3156,City of Knox,Knox City,-37.8891,145.2870026
QUEENSCLIFF BOWLING TENNIS AND CROQUET CLUB,Club,118 HESSE STREET,QUEENSCLIFF,3225,Borough of Queenscliffe,Greater Geelong and Queenscliffe (Capped Region),-38.2719,144.656601
WEST HEIDELBERG RSL,Club,180 BELL STREET,WEST HEIDELBERG,3081,City of Banyule,Banyule (Capped Region),-37.7521,145.0494995
EPPING HOTEL,Hotel,743 HIGH STREET,EPPING,3076,City of Whittlesea,Whittlesea (Capped Region),-37.6493,145.0245056
MARYBOROUGH HIGHLAND SOCIETY,Club,35 HIGH STREET,MARYBOROUGH,3465,Shire of Central Goldfields,Central Goldfields (Capped Region),-37.0489,143.733902
BAIRNSDALE BOWLS CLUB,Club,CNR GRANT & PEARSON STS,BAIRNSDALE,3875,Shire of East Gippsland,East Gippsland (Capped Region),-37.824,147.6199951
RUBICON HOTEL,Hotel,1362 TAGGERTY-THORNTON ROAD,THORNTON,3712,Shire of Murrindindi,Murrindindi Shire,-37.2555,145.7973938
KANGAROO FLAT SPORTS CLUB,Club,"DOWER PARK, MACKENZIE STREET WEST",KANGAROO FLAT,3555,City of Greater Bendigo,Greater Bendigo City,-36.7937,144.2400055
MORNINGTON ON TANTI HOTEL,Hotel,917 NEPEAN HIGHWAY,MORNINGTON,3931,Mornington Peninsula Shire,Mornington Peninsula Shire,-38.226,145.0480957
KYNETON RSL,Club,37-39 MOLLISON STREET,KYNETON,3444,Shire of Macedon Ranges,Macedon Ranges Shire,-37.2515,144.4523926
ECHUCA HOTEL,Hotel,569-571 HIGH STREET,ECHUCA,3564,Shire of Campaspe,Campaspe Shire,-36.1211,144.7458954
PORTARLINGTON GOLF CLUB,Club,130 HOOD ROAD,PORTARLINGTON,3223,City of Greater Geelong,Greater Geelong and Queenscliffe (Capped Region),-38.1238,144.670105
COMMERCIAL HOTEL (CAMPERDOWN),Hotel,115 MANIFOLD STREET,CAMPERDOWN,3260,Shire of Corangamite,Corangamite Shire,-38.2343,143.1481018
MCKINNON HOTEL,Hotel,251 MCKINNON ROAD,MCKINNON,3204,City of Glen Eira,Glen Eira City,-37.9113,145.0424957
COMMERCIAL HOTEL (SWAN HILL),Hotel,91-105 CAMPBELL STREET,SWAN HILL,3585,Rural City of Swan Hill,Swan Hill Rural City,-35.337,143.5594025
HILL TOP GOLF AND COUNTRY CLUB,Club,GOWRIE STREET,TATURA,3616,City of Greater Shepparton,Greater Shepparton (Capped Region),-36.4329,145.2359924
ALTONA BOWLING CLUB,Club,113 CIVIC PARADE,ALTONA,3018,City of Hobsons Bay,Hobsons Bay (Capped Region),-37.8642,144.8325043
PHOENIX HOTEL,Hotel,59 MOORABOOL STREET,GEELONG,3220,City of Greater Geelong,Greater Geelong and Queenscliffe (Capped Region),-38.1462,144.3616028
MITCHELL RIVER TAVERN,Hotel,59-61 MAIN STREET,BAIRNSDALE,3875,Shire of East Gippsland,East Gippsland (Capped Region),-37.8258,147.6345978
COLAC BOWLING CLUB,Club,CNR MOORE AND ARMSTRONG STREETS,COLAC,3250,Shire of Colac-Otway,Colac-Otway Shire,-38.3335,143.5771942
WARRNAMBOOL BOWLS CLUB,Club,75 TIMOR STREET,WARRNAMBOOL,3280,City of Warrnambool,Warrnambool (Capped Region),-38.3878,142.4862061
GOLF HOUSE HOTEL,Hotel,920 DOVETON STREET NORTH,BALLARAT,3350,City of Ballarat,Ballarat (Capped Region),-37.5417,143.8591003
FORESTERS ARMS HOTEL,Hotel,1529 DANDENONG ROAD,OAKLEIGH,3166,City of Monash,Monash (Capped Region),-37.8929,145.0914001
LORNE HOTEL,Hotel,176 MOUNTJOY PARADE,LORNE,3232,Surf Coast Shire,Surf Coast Shire,-38.5431,143.9756927
BENALLA GOLF CLUB,Club,MANSFIELD ROAD,BENALLA,3672,Rural City of Benalla,Benalla City,-36.5721,145.957901
CLUB EASTWOOD,Club,117 OMEO HIGHWAY,BAIRNSDALE,3875,Shire of East Gippsland,East Gippsland (Capped Region),-37.8093,147.6472015
FAWKNER RSL,Club,135 LORNE STREET,FAWKNER,3060,City of Moreland,Moreland (Capped Region),-37.7152,144.963501
DAVA HOTEL,Hotel,610 THE ESPLANADE,MT MARTHA,3934,Mornington Peninsula Shire,Mornington Peninsula Shire,-38.2449,145.0301971
SYLVANIA HOTEL,Hotel,1631 SYDNEY ROAD,CAMPBELLFIELD,3061,City of Hume,Hume (Capped Region),-37.6737,144.9524994
WAURN PONDS HOTEL,Hotel,1154 PRINCES HIGHWAY,WAURN PONDS,3216,City of Greater Geelong,Greater Geelong and Queenscliffe (Capped Region),-38.2032,144.3106995
COBDEN GOLF CLUB,Club,NEYLON STREET,COBDEN,3266,Shire of Corangamite,Corangamite Shire,-38.3227,143.0758057
CORRYONG SPORTING COMPLEX,Club,RECREATION RESERVE,CORRYONG,3707,Shire of Towong,Towong Shire,-36.192,147.8997955
NEWBOROUGH BOWLING CLUB,Club,CNR MONASH & COACH ROADS,NEWBOROUGH,3825,City of La Trobe,Latrobe (Capped Region),-38.182,146.2996979
PRESTON HOTEL,Hotel,635 HIGH STREET,PRESTON,3072,City of Darebin,Darebin (Capped Region),-37.7332,145.0043945
SEYMOUR CLUB,Club,CNR ELIZABETH & TALLAROOK STREETS,SEYMOUR,3660,Shire of Mitchell,Mitchell Shire,-37.0215,145.1325073
PHILLIP ISLAND RSL,Club,225-243 THOMPSON AVENUE,COWES,3922,Bass Coast Shire,Bass Coast (Capped Region),-38.463,145.2398987
CLAYTON BOWLS CLUB,Club,SPRINGS ROAD,CLAYTON SOUTH,3169,City of Kingston,Kingston City,-37.9335,145.1112061
TUDOR INN HOTEL,Hotel,1281 NEPEAN HIGHWAY,CHELTENHAM,3192,City of Kingston,Kingston City,-37.9636,145.0576935
ELSTERNWICK HOTEL,Hotel,259 BRIGHTON ROAD,ELWOOD,3184,City of Port Phillip,Port Phillip City,-37.8832,144.9958954
GATEWAY HOTEL,Hotel,218 PRINCES HIGHWAY,CORIO,3214,City of Greater Geelong,Greater Geelong and Queenscliffe (Capped Region),-38.0806,144.3641968
BLACKBURN HOTEL,Hotel,111 WHITEHORSE ROAD,BLACKBURN,3130,City of Whitehorse,Whitehorse City,-37.8169,145.1517029
AUSTRAL HOTEL,Hotel,185 MURRAY STREET,COLAC,3250,Shire of Colac-Otway,Colac-Otway Shire,-38.3395,143.5845947
ROYAL HOTEL (DAYLESFORD),Hotel,27 VINCENT STREET,DAYLESFORD,3460,Shire of Hepburn,Hepburn Shire,-37.3418,144.1430969
WESTMEADOWS TAVERN,Hotel,10 ARDLIE STREET,WESTMEADOWS,3049,City of Hume,Hume (Capped Region),-37.676,144.8887939
WARRAGUL COUNTRY CLUB,Club,41 SUTTON STREET,WARRAGUL,3820,Shire of Baw Baw,Baw Baw Shire,-38.1488,145.922699
LARA HOTEL,Hotel,8 - 12 HICKS STREET,LARA,3212,City of Greater Geelong,Greater Geelong and Queenscliffe (Capped Region),-38.0237,144.4140015
CLUB HOTEL (WARRAGUL),Club,51 QUEEN STREET,WARRAGUL,3820,Shire of Baw Baw,Baw Baw Shire,-38.1629,145.9299011
COURT JESTER HOTEL,Hotel,270 CHAPEL STREET,PRAHRAN,3181,City of Stonnington,Stonnington City,-37.8506,144.9931946
GOULBURN VALLEY HOTEL,Hotel,223 HIGH STREET,SHEPPARTON,3630,City of Greater Shepparton,Greater Shepparton (Capped Region),-36.3817,145.4060059
MANNINGHAM CLUB,Club,1 THOMPSONS ROAD,BULLEEN,3105,City of Manningham,Manningham City,-37.7775,145.0812988
EPPING RSL,Club,195 HARVEST HOME ROAD,EPPING,3076,City of Whittlesea,Whittlesea (Capped Region),-37.6232,145.0211029
VICTORIAN TAVERN,Hotel,22 AITKEN STREET,GISBORNE,3437,Shire of Macedon Ranges,Macedon Ranges Shire,-37.486,144.5908966
MAGPIE AND STUMP HOTEL,Hotel,3313 EPPING-KILMORE ROAD,WANDONG,3758,Shire of Mitchell,Mitchell Shire,-37.3557,145.0247955
SOMERVILLE HOTEL,Hotel,84 STATION STREET,SOMERVILLE,3912,Mornington Peninsula Shire,Mornington Peninsula Shire,-38.2243,145.1744995
ACES SPORTING CLUB,Club,CNR HUTTON AND SPRINGVALE ROADS,KEYSBOROUGH,3173,City of Greater Dandenong,Greater Dandenong (Capped Region),-38.0098,145.1419983
SPORTING LEGENDS CLUB,Club,233 YORK STREET,SALE,3850,Shire of Wellington,Wellington (Capped Region),-38.1045,147.0675049
ROBINVALE GOLF CLUB,Club,4240 MURRAY VALLEY HIGHWAY,ROBINVALE,3549,Rural City of Swan Hill,Swan Hill Rural City,-34.6013,142.7798004
PORTLAND FOOTBALL NETBALL CRICKET CLUB,Club,"HANLON PARK, HENTY STREET",PORTLAND,3305,Shire of Glenelg,Glenelg Shire,-38.3451,141.5993042
MONBULK BOWLING CLUB,Club,11 MOORES ROAD,MONBULK,3793,Shire of Yarra Ranges,Yarra Ranges Shire,-37.874,145.4095001
CITY BOWLS CLUB COLAC,Club,"CENTRAL RESERVE, GRAVESEND STREET",COLAC,3250,Shire of Colac-Otway,Colac-Otway Shire,-38.348,143.5865021
OLYMPIC HOTEL,Hotel,31 ALBERT STREET,PRESTON,3072,City of Darebin,Darebin (Capped Region),-37.7465,145.0214996
SEBASTOPOL BOWLING CLUB,Club,213-219 ALBERT STREET,SEBASTOPOL,3356,City of Ballarat,Ballarat (Capped Region),-37.6002,143.8415985
RIFLE CLUB HOTEL,Hotel,121 VICTORIA STREET,WILLIAMSTOWN,3016,City of Hobsons Bay,Hobsons Bay (Capped Region),-37.8581,144.8887939
ST ARNAUD SPORTING CLUB,Club,"LORD NELSON PARK, CHARLTON ROAD",ST ARNAUD,3478,Shire of Northern Grampians,Northern Grampians Shire,-36.6102,143.2602997
THE ELSTERNWICK CLUB,Club,19 SANDHAM STREET,ELSTERNWICK,3185,City of Glen Eira,Glen Eira City,-37.8817,145.0041962
KYNETON BOWLING CLUB,Club,61-79 MOLLISON STREET,KYNETON,3444,Shire of Macedon Ranges,Macedon Ranges Shire,-37.2497,144.4524994
KARINGAL BOWLING CLUB,Club,248 SKYE ROAD,FRANKSTON,3199,City of Frankston,Frankston (Capped Region),-38.1372,145.1564941
SUMMERHILL HOTEL,Hotel,"SHOP 12, 830 PLENTY ROAD",RESERVOIR,3073,City of Darebin,Darebin (Capped Region),-37.7253,145.0265961
CENTRAL POINT MELBOURNE,Club,315-321 ELIZABETH STREET,MELBOURNE,3000,City of Melbourne,"Melbourne CBD, Docklands & Southbank Precincts",-37.8112,144.9613953
MELTON COUNTRY CLUB,Club,"MELTON RECREATION RESERVE, RESERVE ROAD",MELTON,3337,City of Melton,Melton City,-37.6847,144.5924072
STAWELL HARNESS RACING CLUB,Club,"LAIDLAW PARK, PATRICK STREET",STAWELL,3380,Shire of Northern Grampians,Northern Grampians Shire,-37.0696,142.7868958
CARDINIA CLUB,Club,71 RACECOURSE ROAD,PAKENHAM,3810,Shire of Cardinia,Cardinia Shire,-38.077,145.4929962
WEST SIDE HORSHAM,Club,BENNETT ROAD,HORSHAM,3400,Rural City of Horsham,Horsham Rural City,-36.7146,142.1869049
SWAN HILL CLUB,Club,5 -17 MCCALLUM STREET,SWAN HILL,3585,Rural City of Swan Hill,Swan Hill Rural City,-35.3389,143.5605011
FRECCIA AZZURRA CLUB,Club,784-796 SPRINGVALE ROAD,KEYSBOROUGH,3173,City of Kingston,Kingston City,-38.0004,145.1412964
LARA SPORTING CLUB,Club,MILL ROAD,LARA,3212,City of Greater Geelong,Greater Geelong and Queenscliffe (Capped Region),-38.0203,144.4138031
ARARAT RSL,Club,74-76 HIGH STREET,ARARAT,3377,Rural City of Ararat,Ararat Rural City,-37.283,142.9337006
LONG BEACH HOTEL,Hotel,380 NEPEAN HIGHWAY,CHELSEA,3196,City of Kingston,Kingston City,-38.0508,145.1148987
CROSS KEYS HOTEL,Hotel,350 PASCOE VALE ROAD,ESSENDON,3040,City of Moonee Valley,Moonee Valley (Capped Region),-37.7441,144.9281006
ASHLEY HOTEL,Hotel,226 BALLARAT ROAD,BRAYBROOK,3019,City of Maribyrnong,Maribyrnong (Capped Region),-37.7802,144.8647003
BORONIA CLUB HOTEL,Hotel,112 BORONIA ROAD,BORONIA,3155,City of Knox,Knox City,-37.8629,145.2863007
VEGAS AT WAVERLEY GARDENS,Club,"SHOP 122, WAVERLEY GARDENS SHOPPING CENTRE",MULGRAVE,3170,City of Monash,Monash (Capped Region),-37.9353,145.1893005
EPPING PLAZA HOTEL,Hotel,"EPPING PLAZA SHOPPING CENTRE, CNR HIGH & COOPER ST",EPPING,3076,City of Whittlesea,Whittlesea (Capped Region),-37.6533,145.0200043
WHITTLESEA BOWLS CLUB,Club,101 CHURCH STREET,WHITTLESEA,3757,City of Whittlesea,Whittlesea City (Municipal Limit),-37.5089,145.1179962
WARRNAMBOOL RSL,Club,CORNER LIEBIG & MERRI STREET,WARRNAMBOOL,3280,City of Warrnambool,Warrnambool (Capped Region),-38.3869,142.4803925
LALOR BOWLING CLUB,Club,CNR SYDNEY CRESCENT & GORDON STREET,LALOR,3075,City of Whittlesea,Whittlesea (Capped Region),-37.6668,145.0218048
BALLARAT & DISTRICT TROTTING CLUB,Club,"BRAY RACEWAY, BELL STREET",BALLARAT,3350,City of Ballarat,Ballarat (Capped Region),-37.5781,143.8311005
HALLAM TAVERNER,Hotel,241 PRINCES HWY,HALLAM,3803,City of Casey,Casey (Capped Region),-38.0067,145.2727051
TANKERVILLE ARMS HOTEL,Hotel,230 NICHOLSON STREET,FITZROY,3065,City of Yarra,Yarra City,-37.7982,144.9750977
NEWMARKET TAVERN,Hotel,386 RACECOURSE ROAD,NEWMARKET,3031,City of Moonee Valley,Moonee Valley (Capped Region),-37.7873,144.9279938
PASCOE VALE TAVERNER HOTEL,Hotel,12 RAILWAY PARADE,PASCOE VALE,3044,City of Moreland,Moreland City (Municipal Limit),-37.7295,144.9286041
DICK WHITTINGTON TAVERN,Hotel,32 CHAPEL STREET,ST KILDA,3182,City of Port Phillip,Port Phillip City,-37.8645,144.9911957
THE BOROUGH CLUB,Club,2-4 HIGH STREET,EAGLEHAWK,3556,City of Greater Bendigo,Greater Bendigo City,-36.7179,144.2519989
FIRST & LAST HOTEL,Hotel,1141 SYDNEY ROAD,FAWKNER,3060,City of Moreland,Moreland (Capped Region),-37.7189,144.9624939
JOKERS ON RYRIE,Hotel,211 RYRIE STREET,GEELONG,3220,City of Greater Geelong,Greater Geelong and Queenscliffe (Capped Region),-38.1498,144.3621063
MAFFRA COMMUNITY SPORTS CLUB,Club,122 JOHNSON STREET,MAFFRA,3860,Shire of Wellington,Wellington (Capped Region),-37.9673,146.9779968
STEEPLES,Club,CORNER MORNINGTON-TYABB & RACECOURSE ROAD,MORNINGTON,3931,Mornington Peninsula Shire,Mornington Peninsula Shire,-38.2388,145.0673065
ELTHAM HOTEL,Hotel,746 MAIN ROAD,ELTHAM,3095,Shire of Nillumbik,Nillumbik Shire,-37.7214,145.1466064
BIRALLEE TAVERN,Hotel,97-99 MELROSE DRIVE,WODONGA,3690,Rural City of Wodonga,Wodonga City,-36.1273,146.8656006
MCCARTINS HOTEL,Hotel,2 BAIR STREET,LEONGATHA,3953,Shire of South Gippsland,South Gippsland Shire,-38.4767,145.9459991
ROSE SHAMROCK HOTEL,Hotel,709 PLENTY ROAD,EAST RESERVOIR,3073,City of Darebin,Darebin (Capped Region),-37.7291,145.0166931
MALVERNVALE HOTEL,Hotel,1321 MALVERN ROAD,MALVERN,3144,City of Stonnington,Stonnington City,-37.8541,145.0381927
BAKERS ARMS HOTEL,Hotel,355 VICTORIA STREET,ABBOTSFORD,3067,City of Yarra,Yarra City,-37.8099,144.996994
THE COVE HOTEL,Hotel,"THE MARINA, MCLEOD ROAD",PATTERSON LAKES,3197,City of Kingston,Kingston City,-38.0709,145.1363983
VINE HOTEL RICHMOND,Hotel,254 BRIDGE ROAD,RICHMOND,3121,City of Yarra,Yarra City,-37.8187,144.9992981
WATERLOO CUP HOTEL,Hotel,252 MARIBYRNONG ROAD,MOONEE PONDS,3039,City of Moonee Valley,Moonee Valley (Capped Region),-37.7701,144.9057007
PARKVIEW HOTEL,Hotel,131 SCOTCHMER STREET,FITZROY NORTH,3068,City of Yarra,Yarra City,-37.783,144.9835968
NUMURKAH GOLF & BOWLS CLUB,Club,TUNNOCK ROAD,NUMURKAH,3636,Shire of Moira,Moira Shire,-36.0984,145.4398041
GREAT WESTERN HOTEL,Hotel,177 ABERDEEN STREET,NEWTOWN,3220,City of Greater Geelong,Greater Geelong and Queenscliffe (Capped Region),-38.1455,144.3350067
OLIVE TREE HOTEL,Hotel,111 EVANS STREET,SUNBURY,3429,City of Hume,Hume (Capped Region),-37.5818,144.7281036
JUNCTION HOTEL,Hotel,1 PLENTY ROAD,PRESTON,3072,City of Darebin,Darebin (Capped Region),-37.7511,145.0021057
BALACLAVA HOTEL,Hotel,123 CARLISLE STREET,BALACLAVA,3183,City of Port Phillip,Port Phillip City,-37.8687,144.9909973
THE CLAYTON HOTEL,Hotel,319 CLAYTON ROAD,CLAYTON,3168,City of Monash,Monash (Capped Region),-37.9243,145.1195068
ST GEORGE WORKERS CLUB,Club,212 PAKINGTON STREET,GEELONG WEST,3218,City of Greater Geelong,Greater Geelong and Queenscliffe (Capped Region),-38.1425,144.3482056
WANGARATTA CLUB,Club,4 VICTORIA PARADE,WANGARATTA,3677,Rural City of Wangaratta,Wangaratta Rural City,-36.354,146.3265991
ROYAL HOTEL (ESSENDON),Hotel,873 MT ALEXANDER ROAD,ESSENDON,3040,City of Moonee Valley,Moonee Valley (Capped Region),-37.7556,144.917099
HIGHWAYS SANDOWN,Club,591-659 PRINCES HWY,SPRINGVALE,3171,City of Greater Dandenong,Greater Dandenong (Capped Region),-37.9475,145.1719971
NEWPORT SOCIAL,Club,1 MASON STREET,NEWPORT,3015,City of Hobsons Bay,Hobsons Bay (Capped Region),-37.8432,144.8827057
COURT HOUSE HOTEL (FOOTSCRAY),Hotel,166 NICHOLSON STREET,FOOTSCRAY,3011,City of Maribyrnong,Maribyrnong (Capped Region),-37.8019,144.8984985
SUNBURY UNITED SPORTING CLUB,Club,"LANGAMA PARK, MITCHELLS LANE",SUNBURY,3429,City of Hume,Hume (Capped Region),-37.5861,144.709198
SUGAR GUM HOTEL,Hotel,2 GOURLAY ROAD,SYDENHAM,3037,City of Melton,Melton City,-37.6926,144.7431946
THE REX,Club,145 BAY STREET,PORT MELBOURNE,3207,City of Port Phillip,Port Phillip City,-37.8413,144.9394073
CLUB ITALIA SPORTING CLUB,Club,128-152 FURLONG ROAD,NORTH SUNSHINE,3020,City of Brimbank,Brimbank (Capped Region),-37.7605,144.8186951
STAR HOTEL BRIGHT,Hotel,91 GREAT ALPINE ROAD,BRIGHT,3741,Alpine Shire,Alpine Shire,-36.729,146.975296
WANTIRNA CLUB,Club,350 STUD ROAD,WANTIRNA SOUTH,3152,City of Knox,Knox City,-37.87,145.2333069
CROWN HOTEL,Hotel,273 MAIN STREET,LILYDALE,3140,Shire of Yarra Ranges,Yarra Ranges Shire,-37.7571,145.3524933
THE VIC INN,Club,65-67 DOUGLAS PARADE,WILLIAMSTOWN,3016,City of Hobsons Bay,Hobsons Bay (Capped Region),-37.8571,144.8972931
UPPER YARRA RSL,Club,119 SETTLEMENT ROAD,YARRA JUNCTION,3797,Shire of Yarra Ranges,Yarra Ranges Shire,-37.7766,145.6253052
BALLARAT LEAGUES CLUB,Club,52 HUMFFRAY STREET NORTH,BALLARAT,3350,City of Ballarat,Ballarat (Capped Region),-37.5603,143.866806
CLUB KILSYTH,Club,CNR CANTERBURY AND COLCHESTER ROADS,BAYSWATER NORTH,3143,City of Maroondah,Maroondah (Capped Region),-37.822,145.3036957
RESERVOIR RSL,Club,251 SPRING STREET,RESERVOIR,3073,City of Darebin,Darebin (Capped Region),-37.7173,145.0057983
THE SANDS HOTEL,Hotel,71 HALL ROAD,CARRUM DOWNS,3201,City of Frankston,Frankston (Capped Region),-38.1005,145.1840057
CLUB LEEDS,Club,17 LEEDS STREET,FOOTSCRAY,3011,City of Maribyrnong,Maribyrnong (Capped Region),-37.7995,144.9011993
CENTURY CITY WALK,Hotel,285-287 SPRINGVALE ROAD,GLEN WAVERLEY,3150,City of Monash,Monash City (Municipal Limit),-37.8814,145.1643982
KILMORE TRACKSIDE,Club,EAST STREET,KILMORE,3764,Shire of Mitchell,Mitchell Shire,-37.2932,144.9611969
MONASH HOTEL,Hotel,2071 - 2091 DANDENONG ROAD,CLAYTON,3168,City of Monash,Monash (Capped Region),-37.9198,145.1376953
CASTELLO'S CARDINIA HOTEL,Hotel,108 PRINCES HIGHWAY,PAKENHAM,3810,Shire of Cardinia,Cardinia Shire,-38.0708,145.4768066
OAKLEIGH JUNCTION HOTEL,Hotel,1 PORTMAN STREET,OAKLEIGH,3166,City of Monash,Monash (Capped Region),-37.8993,145.0877075
CLUB LAVERTON,Club,15 AVIATION ROAD,LAVERTON,3028,City of Hobsons Bay,Hobsons Bay (Capped Region),-37.8682,144.7619019
CLIFTON SPRINGS GOLF CLUB,Club,92-94 CLEARWATER DRIVE,CLIFTON SPRINGS,3222,City of Greater Geelong,Greater Geelong and Queenscliffe (Capped Region),-38.1541,144.5639038
MILDURA GOLF CLUB,Club,TWELFTH STREET,MILDURA,3500,Rural City of Mildura,Mildura Rural City,-34.1777,142.1376953
MORELAND HOTEL,Hotel,882-888 SYDNEY ROAD,BRUNSWICK,3056,City of Moreland,Moreland (Capped Region),-37.7557,144.9644012
THE TIGERS CLUBHOUSE,Club,70 OLD GEELONG ROAD,HOPPERS CROSSING,3029,City of Wyndham,Wyndham (Capped Region),-37.8805,144.7062073
TRIOS SPORTS CLUB,Club,30 GRANT STREET,CRANBOURNE,3977,City of Casey,Casey (Capped Region),-38.1159,145.2796936
THE COACH AND HORSES,Club,33-37 MAROONDAH HIGHWAY,RINGWOOD,3134,City of Maroondah,Maroondah (Capped Region),-37.8166,145.2176971
WANTIRNA HILL CLUB,Club,715 BORONIA ROAD,WANTIRNA,3152,City of Knox,Knox City,-37.8467,145.2250061
WATERGARDENS HOTEL,Hotel,431 KINGS ROAD,TAYLORS LAKES,3038,City of Brimbank,Brimbank (Capped Region),-37.6995,144.7779999
CHERRY HILL TAVERN,Hotel,189 REYNOLDS ROAD,DONCASTER EAST,3109,City of Manningham,Manningham City,-37.7633,145.1705933
BERWICK SPRINGS HOTEL,Hotel,288-296 CLYDE ROAD,BERWICK,3806,City of Casey,Casey (Capped Region),-38.0588,145.337204
CHELSEA HEIGHTS HOTEL,Hotel,1 WELLS ROAD,CHELSEA HEIGHTS,3196,City of Kingston,Kingston City,-38.0278,145.1322937
OUYEN CLUB,Club,9 PICKERING STREET,OUYEN,3490,Rural City of Mildura,Mildura Rural City,-35.0698,142.3161011
DUKE OF EDINBURGH,Hotel,430-436 SYDNEY ROAD,BRUNSWICK,3056,City of Moreland,Moreland (Capped Region),-37.7678,144.9622955
SUNSHINE RSL,Club,99 DICKSON STREET,SUNSHINE,3020,City of Brimbank,Brimbank (Capped Region),-37.7871,144.8374939
GRAND TERMINUS HOTEL,Hotel,98 MACLEOD STREET,BAIRNSDALE,3875,Shire of East Gippsland,East Gippsland (Capped Region),-37.8275,147.6293945
MOE RACING CLUB,Club,WATERLOO ROAD,MOE,3825,City of La Trobe,Latrobe (Capped Region),-38.1761,146.2516937
MAC'S HOTEL (WARRNAMBOOL),Hotel,199 FAIRY STREET,WARRNAMBOOL,3280,City of Warrnambool,Warrnambool (Capped Region),-38.3782,142.4810944
SHEPPARTON CLUB,Club,455 WYNDHAM STREET,SHEPPARTON,3630,City of Greater Shepparton,Greater Shepparton (Capped Region),-36.3845,145.3995972
BACCHUS MARSH GOLF CLUB,Club,LINKS ROAD,BACCHUS MARSH,3340,Shire of Moorabool,Moorabool Shire,-37.6396,144.427002
ZAGAME'S CAULFIELD CLUB HOTEL,Hotel,25 DERBY ROAD,CAULFIELD EAST,3145,City of Glen Eira,Glen Eira City,-37.8758,145.0415955
LAKES ENTRANCE RSL,Club,221 THE ESPLANADE,LAKES ENTRANCE,3909,Shire of East Gippsland,East Gippsland (Capped Region),-37.8812,147.9808044
STONEYS CLUB,Club,59 GRANT STREET,BACCHUS MARSH,3340,Shire of Moorabool,Moorabool Shire,-37.6831,144.4333954
THE YARRAM COUNTRY CLUB,Club,322-340 COMMERCIAL ROAD,YARRAM,3971,Shire of Wellington,Wellington (Capped Region),-38.5666,146.6746979
ROXBURGH PARK HOTEL,Hotel,CNR SOMERTON & PASCOE VALE RDS,ROXBURGH PARK,3064,City of Hume,Hume (Capped Region),-37.6415,144.929306
NAGAMBIE LAKES ENTERTAINMENT CENTRE,Club,HIGH STREET,NAGAMBIE,3608,Shire of Strathbogie,Strathbogie Shire,-36.7846,145.1533966
THE LAKES ENTERTAINMENT CENTRE,Club,38 CHURCH STREET,LAKES ENTRANCE,3909,Shire of East Gippsland,East Gippsland (Capped Region),-37.879,147.9902039
THE CLUB,Club,1312 - 1322  WESTERN HIGHWAY,CAROLINE SPRINGS,3023,City of Melton,Melton City,-37.7559,144.7418976
RACECOURSE HOTEL (MALVERN EAST),Hotel,895 DANDENONG ROAD,MALVERN EAST,3145,City of Stonnington,Stonnington City,-37.8758,145.0455933
HOGANS HOTEL,Hotel,92 HIGH STREET,WALLAN,3756,Shire of Mitchell,Mitchell Shire,-37.4123,144.9803009
FAMILY HOTEL,Hotel,65 PRINCES WAY,DROUIN,3818,Shire of Baw Baw,Baw Baw Shire,-38.1358,145.857193
BALLARAT GOLF CLUB,Club,1800 STURT STREET,BALLARAT,3350,City of Ballarat,Ballarat (Capped Region),-37.5481,143.8058014
MERBEIN CITIZENS CLUB,Club,108 COMMERCIAL STREET,MERBEIN,3505,Rural City of Mildura,Mildura Rural City,-34.1833,142.0615997
MELTON ENTERTAINMENT PARK,Club,2 FERRIS ROAD,MELTON SOUTH,3338,City of Melton,Melton City,-37.6933,144.6006012
CLUB RINGWOOD,Club,523-531 MAROONDAH HIGHWAY,RINGWOOD,3134,City of Maroondah,Maroondah (Capped Region),-37.7973,145.2537994
KERANG SPORTS AND ENTERTAINMENT VENUE,Club,25 VICTORIA STREET,KERANG,3579,Shire of Gannawarra,Gannawarra Shire,-35.7348,143.9207001
LYNBROOK HOTEL,Hotel,550 SOUTH GIPPSLAND HIGHWAY,LYNBROOK,3975,City of Casey,Casey (Capped Region),-38.0438,145.2514038
THE PHOENIX HOTEL,Hotel,40 WALLACE AVENUE,POINT COOK,3030,City of Wyndham,Wyndham City (Municipal Limit),-37.8725,144.7467957
THE BROOK ON SNEYDES,Club,215 SNEYDES ROAD,POINT COOK,3030,City of Wyndham,Wyndham City (Municipal Limit),-37.8979,144.7288971
THE SALE RSL & COMMUNITY SUB-BRANCH,Club,143 YORK STREET,SALE,3850,Shire of Wellington,Wellington (Capped Region),-38.0904,147.0688934
WEST WATERS HOTEL,Hotel,10-20 LAKE STREET,CAROLINE SPRINGS,3023,City of Melton,Melton City,-37.732,144.7451019
BELL'S HOTEL,Hotel,157 MORAY STREET,SOUTH MELBOURNE,3205,City of Port Phillip,Port Phillip City,-37.8309,144.9626007
MAIL EXCHANGE HOTEL,Hotel,688 BOURKE STREET,MELBOURNE,3000,City of Melbourne,"Melbourne CBD, Docklands & Southbank Precincts",-37.816672,144.953344
NEW BAY HOTEL,Hotel,329 New Street,Brighton,3186,City of Bayside,Bayside City,-37.9045,144.9927063
THE PINK HILL HOTEL,Hotel,13 MAY ROAD,BEACONSFIELD,3807,Shire of Cardinia,Cardinia Shire,-38.0516254,145.3843413
THE FOUNDRY HOTEL COMPLEX,Hotel,366 HIGH STREET,GOLDEN SQUARE,3555,City of Greater Bendigo,Greater Bendigo City,-36.7736,144.2566986
HIGHLANDS HOTEL,Hotel,301 GRAND BOULEVARD,CRAIGIEBURN,3064,City of Hume,Hume (Capped Region),-37.5748,144.9216003
SANCTUARY LAKES HOTEL,Hotel,280-286 POINT COOK ROAD,POINT COOK,3030,City of Wyndham,Wyndham City (Municipal Limit),-37.8942,144.7534943
HOTEL 520 ON SAYERS,Hotel,520 SAYERS ROAD,TARNEIT,3029,City of Wyndham,Wyndham City (Municipal Limit),-37.8477,144.6891937
RAFFERTY'S TAVERN,Hotel,CORNER WALSH ROAD AND PRINCES HIGHWAY,WARRNAMBOOL,3280,City of Warrnambool,Warrnambool (Capped Region),-38.3651,142.4600067
BRIDGE INN HOTEL,Hotel,1425 PLENTY ROAD,MERNDA,3754,City of Whittlesea,Whittlesea City (Municipal Limit),-37.6008,145.0950928
COBRAM HOTEL,Hotel,8-18 STATION STREET,COBRAM,3644,Shire of Moira,Moira Shire,-35.9214,145.6405945
THE BAY & BRIDGE HOTEL,Hotel,316 BAY STREET,PORT MELBOURNE,3207,City of Port Phillip,Port Phillip City,-37.8369,144.9443054
AMERICAN HOTEL,Hotel,239-249 Hare Street,Echuca,3564,Shire of Campaspe,Campaspe Shire,-36.1241,144.7480927
FLYING HORSE BAR AND BREWERY,Hotel,10691-10699 Princes Highway,Warrnambool,3280,City of Warrnambool,Warrnambool (Capped Region),-38.3854,142.5332947
ROBIN HOOD HOTEL,Hotel,33 PEEL STREET NORTH,BALLARAT,3350,City of Ballarat,Ballarat (Capped Region),-37.5613,143.8636932
PEPPERMILL INN HOTEL MOTEL,Hotel,7900 GOULBURN VALLEY HIGHWAY,KIALLA,3631,City of Greater Shepparton,Greater Shepparton (Capped Region),-36.4198,145.394104
FYANSFORD HOTEL,Hotel,67 HYLAND STREET,FYANSFORD,3221,City of Greater Geelong,Greater Geelong and Queenscliffe (Capped Region),-38.1422,144.3099976
TERMINUS HOTEL,Hotel,23-31 HARKER STREET,HEALESVILLE,3777,Shire of Yarra Ranges,Yarra Ranges Shire,-37.65636766,145.5096132
CARDINIA PARK HOTEL,Hotel,200 BEACONSFIELD - EMERALD ROAD,BEACONSFIELD,3807,Shire of Cardinia,Cardinia Shire,-38.02870185,145.3781971
VALLEY INN HOTEL,Hotel,120 FYANS STREET,GEELONG,3220,City of Greater Geelong,Greater Geelong and Queenscliffe (Capped Region),-38.1632246,144.3586919
LAKESIDE CLUB,Club,2 FOSTER STREET,SALE,3850,Shire of Wellington,Wellington (Capped Region),-38.1118,147.080307
CLUB OFFICER,Club,3 NIKI PL,OFFICER,3809,Shire of Cardinia,Cardinia Shire,-38.07589023,145.4344028
WANGARATTA RSL,Club,2-4 TEMPLETON STREET,WANGARATTA,3677,Rural City of Wangaratta,Wangaratta Rural City,-36.35222166,146.3266491
CLUB TARNEIT,Club,622 LEAKES ROAD,TARNEIT,3029,City of Wyndham,Wyndham City (Municipal Limit),-37.83370185,144.7017827
THE BRASS MONKEY ON LONSDALE,Hotel,388 LONSDALE STREET,MELBOURNE,3000,City of Melbourne,"Melbourne CBD, Docklands & Southbank Precincts",-37.8128651,144.961012
BATMAN'S HILL ON COLLINS,Hotel,623 COLLINS STREET,MELBOURNE,3000,City of Melbourne,"Melbourne CBD, Docklands & Southbank Precincts",-37.81920519,144.9545678
THE MEETING PLACE,Hotel,315 ELIZABETH STREET,MELBOURNE,3000,City of Melbourne,"Melbourne CBD, Docklands & Southbank Precincts",-37.81126963,144.9615102
ALBION HOTEL,CLUB,314 SMITH STREET,COLLINGWOOD,3066,City of Yarra,Yarra,-37.79966095,144.9844435
BENTLEIGH CLUB,CLUB,,BENTLEIGH,,City of Glen Eira,Glen Eira City,-37.913182,145.027807
CLUB HOTEL,CLUB,6 MOUNT DANDENONG ROAD,RINGWOOD EAST,3135,City of Maroondah,Maroondah (Capped Region),-37.811975,145.239385
THE JIM DANDY HOTEL,Hotel,"193 Lonsdale St, ",DANDENONG,3175,City of Greater Dandenong,Greater Dandenong (Capped Region),-37.989905,145.214399
THE WONTHAGGI CLUB,CLUB,MCKENZIE STREET,WONTHAGGI,3995,Bass Coast Shire,Bass Coast (Capped Region),-38.59699435,145.589999
BRIGHTON BEACH HOTEL,HOTEL,4 THE ESPLANADE,BRIGHTON,3186,City of Bayside,Bayside City,-37.9264365,144.9877303
CLUB TIVOLI,CLUB,291 DANDENONG ROAD,WINDSOR,3181,City of Stonnington,Stonnington City,-37.859123,145.004726
EAST MALVERN RSL,CLUB,9-13 ELLISON STREET,MALVERN EAST,3145,City of Stonnington,Stonnington City,-37.87204153,145.0666363
THE MINERS TAVERN,HOTEL,120 Lydiard St, Ballarat Central,3350,City of Ballarat,Ballarat (Capped Region),-37.559178,143.858341
WERRIBEE BOWLS CLUB,CLUB,WATTON STREET,WERRIBEE,3030,City of Wyndham,Wyndham City (Municipal Limit),-37.90646,144.652862
GEELONG FOOTBALL SOCIAL CLUB,CLUB,LA TROBE TERRACE,GEELONG,3220,City of Greater Geelong,Greater Geelong and Queenscliffe (Capped Region),-38.1576,144.353117
WILLIAMSTOWN RSL,CLUB,128 Ferguson St,WILLIAMSTOWN,3016,City of Hobsons Bay,Hobsons Bay (Capped Region),-37.858378,144.894078
MOUNT BEAUTY GOLF CLUB,CLUB,TAWONGA CRESCENT,MOUNT BEAUTY,3699,Alpine Shire,Alpine Shire,-36.740983,147.174989
CLUB HAWTHORN,CLUB,HILDA CRESCENT,HAWTHORN,3122,City of Boroondara,Boroondara City,-37.820578,145.029209
NORTH PIER HOTEL,HOTEL,5-6 THE ESPLANADE,COWES,3922,Bass Coast Shire,Bass Coast (Capped Region),-38.44840789,145.2412109
FRANKSTON FOOTBALL CLUB,CLUB,PLOWMAN PLACE,FRANKSTON,3199,City of Frankston,Frankston (Capped Region),-38.14731822,145.1212834
FAIRFIELD RSL,CLUB,7 Railway Pl,FAIRFIELD,3078,City of Darebin,Darebin (Capped Region),-37.780034,145.016689
COURT HOUSE HOTEL,HOTEL,615 Sydney Rd ,BRUNSWICK,3056,City of Moreland,Moreland (Capped Region),-37.762664,144.962278
LYNDHURST CLUB HOTEL,HOTEL,513 Lygon St,BRUNSWICK,3056,City of Moreland,Moreland (Capped Region),-37.76234,144.973322
TOWN HALL HOTEL ,HOTEL,62/68 Main St,STAWELL,3380,Northern Grampians,,-37.05704,142.779208
TORQUAY GOLF CLUB,CLUB,1 GREAT OCEAN ROAD,TORQUAY,3228,Surf Coast Shire,Surf Coast Shire,-38.33958203,144.3114756
BEAUMARIS RSL,CLUB,489 Balcombe Rd,BEAUMARIS,3193,City of Bayside,Bayside City,-37.977512,145.028852
REGGIO CALABRIA CLUB,CLUB,476 BRUNSWICK ROAD,BRUNSWICK WEST,3055,City of Moreland,Moreland (Capped Region),-37.77434329,144.9376815
QUEENSCLIFF BREW HOUSE,HOTEL,2 GELLIBRAND STREET,QUEENSCLIFF,3225,Borough of Queenscliffe,Greater Geelong and Queenscliffe (Capped Region),-38.2657,144.6634
MITHCAM RSL ,CLUB,26 McDowall St,MITCHAM,3132,City of Whitehorse,Whitehorse City,-37.814352,145.194227
THE VICTORIA HOTEL YARRAVILLE,HOTEL,188 HYDE STREET,YARRAVILLE,3013,City of Maribyrnong,Maribyrnong (Capped Region),-37.81700658,144.896304
ELWOOD RSL,CLUB,2 Pine Ave,ELWOOD,3184,City of Port Phillip,Port Phillip City,-37.886343,144.989121
HAMPTON RSL,CLUB,25 HOLYROOD STREET,HAMPTON,3188,City of Bayside,Bayside City,-37.93246696,144.9962462
LOCH SPORT RSL,CLUB,CHARLES STREET RESERVE,LOCH SPORT,3851,Shire of Wellington,Wellington (Capped Region),-38.056435,147.567642
ROYAL HOTEL,HOTEL,132 FIREBRACE STREET,HORSHAM,3400,Rural City of Horsham,Horsham Rural City,-36.71697405,142.1994693
ALMA SPORTS CLUB,CLUB,1 Wilks St ,CAULFIELD NORTH,3161,City of Glen Eira,Glen Eira City,-37.862907,145.014572
ANGLERS TAVERN,HOTEL,2 RALEIGH ROAD,MARIBYRNONG,3032,City of Maribyrnong,Maribyrnong (Capped Region),-37.76936726,144.9012009
Aspendale Edithvale RSL,CLUB,111 Kinross Ave,EDITHVALE,3196,City of Kingston,Kingston City,-38.03324,145.117175
NORTHCOTE RSL,CLUB,496 High Street,NORTHCOTE,3070,City of Darebin,Darebin (Capped Region),-37.765017,144.999605
NORTH SHORE SPORTS CLUB,CLUB,39A ROSE AVENUE,NORLANE,3214,City of Greater Geelong,Greater Geelong and Queenscliffe (Capped Region),-38.0883555,144.3614807
BUNINYONG GOLF CLUB,CLUB,613 LEARMONTH STREET,BUNINYONG,3357,City of Ballarat,Ballarat (Capped Region),-37.648971,143.8763242
DANISH CLUB,CLUB,177 Beaconsfield Parade,MIDDLE PARK,3206,City of Port Phillip,Port Phillip City,-37.850892,144.955383
HOTEL SORRENTO,HOTEL,5 HOTHAM ROAD,SORRENTO,3943,Mornington Peninsula Shire,Mornington Peninsula Shire,-38.33663843,144.7422225
OAKLEIGH-CARNEGIE RSL,CLUB,95-97 DRUMMOND STREET,OAKLEIGH,3166,City of Monash,Monash (Capped Region),-37.89692198,145.0898128
HEIDELBERG RSL,CLUB,180 BELL STREET,HEIDELBERG WEST,3084,City of Banyule,Banyule City (Municipal Limit),-37.752175,145.049587
CLUB WARRANDYTE,CLUB,120 YARRA STREET,WARRANDYTE,3113,City of Manningham,Manningham City,-37.73891501,145.2180702
PRESTON-RESERVOIR BOWLS CLUB,CLUB,75 LEAMINGTON STREET,RESERVOIR,3073,City of Darebin,Darebin (Capped Region),-37.71141788,144.9932762
BALL COURT HOTEL,HOTEL,60 MACEDON STREET,SUNBURY,3429,City of Hume,Hume (Capped Region),-37.58113396,144.7362464
MORNINGTON GOLF CLUB,CLUB,TALLIS DRIVE,MORNINGTON,3931,Mornington Peninsula Shire,Mornington Peninsula Shire,-38.20843903,145.059683
THE CLUBHOUSE BAR & BISTRO,CLUB,10 CLUBHOUSE PLACE,WEST WODONGA,3690,Rural City of Wodonga,Wodonga City,-36.11820845,146.8399794
PHILLIP ISLAND GOLF CLUB,CLUB,SETTLEMENT ROAD,COWES,3922,Bass Coast Shire,Bass Coast (Capped Region),-38.455824,145.25582
THE LINCOLN,HOTEL,"LOT 4, 64 LINCOLN CAUSEWAY",WODONGA,3691,Rural City of Wodonga,Wodonga City,-36.095276,146.90305
OASIS OZ HOTEL,HOTEL,177 Dryburgh St,NORTH MELBOURNE,3051,City of Melbourne,"Melbourne CBD, Docklands & Southbank Precincts",-37.802352,144.943581
ISLE OF WIGHT HOTEL,HOTEL,9-10 The Esplanade,COWES,3922,Bass Coast Shire,Bass Coast (Capped Region),-38.448044,145.241058
PULLMAN MELBOURNE ON THE PARK,HOTEL,192 WELLINGTON PARADE,EAST MELBOURNE,3002,City of Melbourne,"Melbourne CBD, Docklands & Southbank Precincts",-37.815991,144.983441
WESTERN BULLDOGS,CLUB,WESTERN OVAL,FOOTSCRAY,3011,City of Maribyrnong,Maribyrnong (Capped Region),-37.800121,144.885234
GOLDEN FLEECE SOUTH MELBOURNE,HOTEL,120 MONTAGUE STREET,SOUTH MELBOURNE,3205,City of Port Phillip,Port Phillip City,-37.83127692,144.9503574
RICHMOND TAVERN,HOTEL,14 Elizabeth St,RICHMOND,3121,City of Yarra,Yarra City,-37.811313,144.992182
ELTHAM RSL,CLUB,804 Main Rd,ELTHAM,3095,Shire of Nillumbik,Nillumbik Shire,-37.720384,145.146107
NORTH MELBOURNE FOOTBALL SOCIAL CLUB,CLUB,204-206 Arden St,NORTH MELBOURNE,3051,City of Melbourne,"Melbourne CBD, Docklands & Southbank Precincts",-37.799843,144.940821
HURSTBRIDGE BOWLING & RECREATION CLUB,CLUB,36 GREYSHARPS ROAD,HURSTBRIDGE,3099,Shire of Nillumbik,Nillumbik Shire,-37.6401546,145.1891913
THE GRAND AT DANDENONG,HOTEL,139-155 Thomas St,DANDENONG,3175,City of Greater Dandenong,Greater Dandenong (Capped Region),-37.989547,145.212822
